{
"type": "FeatureCollection",
"name": "entities",
"features": [
{ "type": "Feature", "properties": { "Layer": "Predeterminada", "SubClasses": "AcDbEntity:AcDb2dPolyline", "EntityHandle": "6F" }, "geometry": { "type": "LineString", "coordinates": [ [ -69.8833334, 18.4799942, 0.0 ], [ -69.8833712, 18.4800321, 0.0 ], [ -69.8834411, 18.480017, 0.0 ], [ -69.8835192, 18.4799931, 0.0 ], [ -69.8839857, 18.4800049, 0.0 ], [ -69.8839499, 18.4802111, 0.0 ], [ -69.8834832, 18.4802519, 0.0 ], [ -69.8834032, 18.4802652, 0.0 ], [ -69.8833504, 18.4802692, 0.0 ] ] } },
{ "type": "Feature", "properties": { "Layer": "Predeterminada", "SubClasses": "AcDbEntity:AcDbCircle:AcDbArc", "EntityHandle": "7A" }, "geometry": { "type": "LineString", "coordinates": [ [ -69.8831946, 18.4801604, 0.0 ], [ -69.8831977, 18.4801702, 0.0 ], [ -69.8832015, 18.4801798, 0.0 ], [ -69.883206, 18.4801891, 0.0 ], [ -69.8832111, 18.480198, 0.0 ], [ -69.8832167, 18.4802066, 0.0 ], [ -69.883223, 18.4802148, 0.0 ], [ -69.8832298, 18.4802225, 0.0 ], [ -69.8832371, 18.4802297, 0.0 ], [ -69.8832449, 18.4802365, 0.0 ], [ -69.8832531, 18.4802426, 0.0 ], [ -69.8832617, 18.4802482, 0.0 ], [ -69.8832707, 18.4802532, 0.0 ], [ -69.88328, 18.4802576, 0.0 ], [ -69.8832896, 18.4802613, 0.0 ], [ -69.8832994, 18.4802644, 0.0 ], [ -69.8833095, 18.4802667, 0.0 ], [ -69.8833196, 18.4802684, 0.0 ], [ -69.8833298, 18.4802694, 0.0 ], [ -69.8833401, 18.4802697, 0.0 ], [ -69.8833504, 18.4802692, 0.0 ] ] } },
{ "type": "Feature", "properties": { "Layer": "Predeterminada", "SubClasses": "AcDbEntity:AcDb2dPolyline", "EntityHandle": "7B" }, "geometry": { "type": "LineString", "coordinates": [ [ -69.8831946, 18.4801604, 0.0 ], [ -69.8831697, 18.4800722, 0.0 ], [ -69.8831445, 18.4799837, 0.0 ], [ -69.8833306, 18.4799884, 0.0 ] ] } },
{ "type": "Feature", "properties": { "Layer": "Predeterminada", "SubClasses": "AcDbEntity:AcDbLine", "EntityHandle": "81" }, "geometry": { "type": "LineString", "coordinates": [ [ -69.8833306, 18.4799884, 0.0 ], [ -69.8833334, 18.4799942, 0.0 ] ] } },
{ "type": "Feature", "properties": { "Layer": "Predeterminada", "SubClasses": "AcDbEntity:AcDb2dPolyline", "EntityHandle": "82" }, "geometry": { "type": "LineString", "coordinates": [ [ -69.888813, 18.4748645, -0.0013372 ], [ -69.8886693, 18.4749312, -0.0013372 ], [ -69.8886358, 18.4749687, -0.0013372 ], [ -69.888713, 18.4752281, -0.0013372 ], [ -69.8887482, 18.4752447, -0.0013372 ], [ -69.8887824, 18.4752337, -0.0013372 ], [ -69.8890331, 18.474997, -0.0013372 ], [ -69.8890398, 18.4750008, -0.0013372 ], [ -69.8892822, 18.4751947, -0.0013372 ], [ -69.8889184, 18.4755477, -0.0013372 ], [ -69.8885744, 18.4758816, -0.0013372 ], [ -69.8885542, 18.4758223, -0.0013372 ], [ -69.8884666, 18.4755633, -0.0013372 ], [ -69.8883027, 18.4750995, -0.0013372 ], [ -69.8881824, 18.4747248, -0.0013372 ], [ -69.8885057, 18.4745957, -0.0013372 ], [ -69.8886464, 18.4745306, -0.0013372 ] ] } },
{ "type": "Feature", "properties": { "Layer": "Predeterminada", "SubClasses": "AcDbEntity:AcDbSpline", "EntityHandle": "95" }, "geometry": { "type": "LineString", "coordinates": [ [ -69.8886464, 18.4745306 ], [ -69.8886464, 18.4745307 ], [ -69.8886465, 18.4745307 ], [ -69.8886465, 18.4745307 ], [ -69.8886465, 18.4745308 ], [ -69.8886465, 18.4745308 ], [ -69.8886466, 18.4745309 ], [ -69.8886466, 18.4745309 ], [ -69.8886466, 18.474531 ], [ -69.8886466, 18.474531 ], [ -69.8886466, 18.474531 ], [ -69.8886467, 18.4745311 ], [ -69.8886467, 18.4745311 ], [ -69.8886467, 18.4745312 ], [ -69.8886467, 18.4745312 ], [ -69.8886467, 18.4745313 ], [ -69.8886468, 18.4745313 ], [ -69.8886468, 18.4745313 ], [ -69.8886468, 18.4745314 ], [ -69.8886468, 18.4745314 ], [ -69.8886469, 18.4745315 ], [ -69.8886469, 18.4745315 ], [ -69.8886469, 18.4745316 ], [ -69.8886469, 18.4745316 ], [ -69.8886469, 18.4745316 ], [ -69.888647, 18.4745317 ], [ -69.888647, 18.4745317 ], [ -69.888647, 18.4745318 ], [ -69.888647, 18.4745318 ], [ -69.888647, 18.4745318 ], [ -69.8886471, 18.4745319 ], [ -69.8886471, 18.4745319 ], [ -69.8886471, 18.474532 ], [ -69.8886471, 18.474532 ], [ -69.8886471, 18.4745321 ], [ -69.8886472, 18.4745321 ], [ -69.8886472, 18.4745321 ], [ -69.8886472, 18.4745322 ], [ -69.8886472, 18.4745322 ], [ -69.8886473, 18.4745323 ], [ -69.8886473, 18.4745323 ], [ -69.8886473, 18.4745324 ], [ -69.8886473, 18.4745324 ], [ -69.8886473, 18.4745324 ], [ -69.8886474, 18.4745325 ], [ -69.8886474, 18.4745325 ], [ -69.8886474, 18.4745326 ], [ -69.8886474, 18.4745326 ], [ -69.8886474, 18.4745327 ], [ -69.8886475, 18.4745327 ], [ -69.8886597, 18.4745573 ], [ -69.8886923, 18.4746225 ], [ -69.8887244, 18.4746868 ], [ -69.8887555, 18.4747492 ], [ -69.8887852, 18.4748087 ], [ -69.888813, 18.4748645 ] ] } },
{ "type": "Feature", "properties": { "Layer": "Predeterminada", "SubClasses": "AcDbEntity:AcDb2dPolyline", "EntityHandle": "96" }, "geometry": { "type": "LineString", "coordinates": [ [ -69.8886834, 18.4745148, -0.0013372 ], [ -69.8886828, 18.4745138, -0.0013372 ], [ -69.8893053, 18.4742257, -0.0013372 ], [ -69.8900598, 18.4738801, -0.0013372 ], [ -69.8902194, 18.4742149, -0.0013372 ], [ -69.8902865, 18.4743006, -0.0013372 ], [ -69.8893117, 18.4751669, -0.0013372 ], [ -69.8890625, 18.4749676, -0.0013372 ], [ -69.8889856, 18.4749232, -0.0013372 ], [ -69.8889291, 18.4748949, -0.0013372 ], [ -69.8888673, 18.4748648, -0.0013372 ], [ -69.888855, 18.4748589, -0.0013372 ], [ -69.8888489, 18.4748467, -0.0013372 ] ] } },
{ "type": "Feature", "properties": { "Layer": "Predeterminada", "SubClasses": "AcDbEntity:AcDbSpline", "EntityHandle": "A5" }, "geometry": { "type": "LineString", "coordinates": [ [ -69.8888489, 18.4748467 ], [ -69.8888443, 18.4748373 ], [ -69.8888395, 18.4748278 ], [ -69.8888347, 18.4748182 ], [ -69.8888299, 18.4748084 ], [ -69.8888249, 18.4747985 ], [ -69.8888199, 18.4747885 ], [ -69.8888149, 18.4747784 ], [ -69.8888098, 18.4747682 ], [ -69.8888047, 18.4747579 ], [ -69.8887995, 18.4747475 ], [ -69.8887942, 18.474737 ], [ -69.8887889, 18.4747264 ], [ -69.8887836, 18.4747157 ], [ -69.8887782, 18.4747049 ], [ -69.8887728, 18.4746941 ], [ -69.8887674, 18.4746832 ], [ -69.8887619, 18.4746722 ], [ -69.8887564, 18.4746612 ], [ -69.8887509, 18.4746501 ], [ -69.8887453, 18.474639 ], [ -69.8887398, 18.4746278 ], [ -69.8887342, 18.4746166 ], [ -69.8887286, 18.4746054 ], [ -69.8887229, 18.4745941 ], [ -69.8887173, 18.4745828 ], [ -69.8887117, 18.4745715 ], [ -69.888706, 18.4745602 ], [ -69.8887003, 18.4745488 ], [ -69.8886947, 18.4745375 ], [ -69.888689, 18.4745262 ], [ -69.8886834, 18.4745148 ] ] } },
{ "type": "Feature", "properties": { "Layer": "Predeterminada", "SubClasses": "AcDbEntity:AcDb2dPolyline", "EntityHandle": "A6" }, "geometry": { "type": "LineString", "coordinates": [ [ -69.8833661, 18.479971, 0.0 ], [ -69.8833487, 18.4799344, 0.0 ], [ -69.8832995, 18.4797557, 0.0 ], [ -69.8832731, 18.4794214, 0.0 ], [ -69.8836876, 18.4794007, 0.0 ], [ -69.8835041, 18.4799603, 0.0 ], [ -69.883431, 18.4799783, 0.0 ], [ -69.8833827, 18.4799934, 0.0 ], [ -69.8833661, 18.479971, 0.0 ] ] } },
{ "type": "Feature", "properties": { "Layer": "Predeterminada", "SubClasses": "AcDbEntity:AcDb2dPolyline", "EntityHandle": "B0" }, "geometry": { "type": "LineString", "coordinates": [ [ -69.8844638, 18.4793637, 0.0 ], [ -69.8844591, 18.4793713, 0.0 ], [ -69.8841353, 18.4796747, 0.0 ], [ -69.8840458, 18.4797908, 0.0 ], [ -69.8840006, 18.479931, 0.0 ], [ -69.8839933, 18.479965, 0.0 ], [ -69.8835441, 18.4799537, 0.0 ], [ -69.8837303, 18.4793986, 0.0 ], [ -69.8844638, 18.4793637, 0.0 ] ] } },
{ "type": "Feature", "properties": { "Layer": "Predeterminada", "SubClasses": "AcDbEntity:AcDb2dPolyline", "EntityHandle": "BA" }, "geometry": { "type": "LineString", "coordinates": [ [ -69.8849898, 18.4773999, 0.0 ], [ -69.8842759, 18.4773749, 0.0 ], [ -69.8842073, 18.4773782, 0.0 ], [ -69.8843204, 18.4780971, 0.0 ], [ -69.8846572, 18.4780713, 0.0 ], [ -69.8849995, 18.4780548, 0.0 ], [ -69.8850009, 18.4776366, 0.0 ], [ -69.8849898, 18.4773999, 0.0 ] ] } },
{ "type": "Feature", "properties": { "Layer": "Predeterminada", "SubClasses": "AcDbEntity:AcDb2dPolyline", "EntityHandle": "C3" }, "geometry": { "type": "LineString", "coordinates": [ [ -69.8850167, 18.4786356, 0.0 ], [ -69.885, 18.4780949, 0.0 ], [ -69.8846596, 18.4781113, 0.0 ], [ -69.8843267, 18.4781368, 0.0 ], [ -69.884424, 18.4787466, 0.0 ], [ -69.8850167, 18.4786356, 0.0 ] ] } },
{ "type": "Feature", "properties": { "Layer": "Predeterminada", "SubClasses": "AcDbEntity:AcDb2dPolyline", "EntityHandle": "CA" }, "geometry": { "type": "LineString", "coordinates": [ [ -69.8860615, 18.4779581, 0.0 ], [ -69.8861849, 18.4780178, 0.0 ], [ -69.8862967, 18.4780222, 0.0 ], [ -69.8863536, 18.47798, 0.0 ], [ -69.8864015, 18.4779283, 0.0 ], [ -69.8861806, 18.4773313, 0.0 ], [ -69.8858594, 18.4773544, 0.0 ], [ -69.8860615, 18.4779581, 0.0 ] ] } },
{ "type": "Feature", "properties": { "Layer": "Predeterminada", "SubClasses": "AcDbEntity:AcDb2dPolyline", "EntityHandle": "D3" }, "geometry": { "type": "LineString", "coordinates": [ [ -69.8875858, 18.4758096, 0.0 ], [ -69.8868394, 18.4760383, 0.0 ], [ -69.8869578, 18.4763701, 0.0 ], [ -69.8876564, 18.4761047, 0.0 ], [ -69.8875858, 18.4758096, 0.0 ] ] } },
{ "type": "Feature", "properties": { "Layer": "Predeterminada", "SubClasses": "AcDbEntity:AcDb2dPolyline", "EntityHandle": "D9" }, "geometry": { "type": "LineString", "coordinates": [ [ -69.8876705, 18.4761422, 0.0 ], [ -69.8877135, 18.4762239, 0.0 ], [ -69.8878262, 18.4763516, 0.0 ], [ -69.8870657, 18.4766844, 0.0 ], [ -69.886971, 18.4764078, 0.0 ], [ -69.8876705, 18.4761422, 0.0 ] ] } },
{ "type": "Feature", "properties": { "Layer": "Predeterminada", "SubClasses": "AcDbEntity:AcDb2dPolyline", "EntityHandle": "E0" }, "geometry": { "type": "LineString", "coordinates": [ [ -69.8879351, 18.4764835, 0.0 ], [ -69.8877163, 18.4766642, 0.0 ], [ -69.8875733, 18.4767551, 0.0 ], [ -69.8874253, 18.4768318, 0.0 ], [ -69.8871672, 18.4769435, 0.0 ], [ -69.8870795, 18.476722, 0.0 ], [ -69.8878534, 18.4763833, 0.0 ], [ -69.8879351, 18.4764835, 0.0 ] ] } },
{ "type": "Feature", "properties": { "Layer": "Predeterminada", "SubClasses": "AcDbEntity:AcDb2dPolyline", "EntityHandle": "E9" }, "geometry": { "type": "LineString", "coordinates": [ [ -69.8860283, 18.4779719, 0.0 ], [ -69.8860127, 18.478062, 0.0 ], [ -69.8850395, 18.4780541, 0.0 ], [ -69.8850409, 18.4776358, 0.0 ], [ -69.8850299, 18.4774006, 0.0 ], [ -69.885223, 18.4774011, 0.0 ], [ -69.8855674, 18.4773754, 0.0 ], [ -69.8858183, 18.4773574, 0.0 ], [ -69.8860283, 18.4779719, 0.0 ] ] } },
{ "type": "Feature", "properties": { "Layer": "Predeterminada", "SubClasses": "AcDbEntity:AcDb2dPolyline", "EntityHandle": "F3" }, "geometry": { "type": "LineString", "coordinates": [ [ -69.8871469, 18.4769949, 0.0 ], [ -69.8864037, 18.4772753, 0.0 ], [ -69.8862203, 18.477324, 0.0 ], [ -69.8864273, 18.4778963, 0.0 ], [ -69.8872362, 18.4771608, 0.0 ], [ -69.8871469, 18.4769949, 0.0 ] ] } },
{ "type": "Feature", "properties": { "Layer": "Predeterminada", "SubClasses": "AcDbEntity:AcDb2dPolyline", "EntityHandle": "FA" }, "geometry": { "type": "LineString", "coordinates": [ [ -69.8874691, 18.4775848, 0.0 ], [ -69.8872559, 18.477197, 0.0 ], [ -69.8864332, 18.4779449, 0.0 ], [ -69.8863806, 18.478009, 0.0 ], [ -69.8863077, 18.4780586, 0.0 ], [ -69.8861753, 18.4780556, 0.0 ], [ -69.886063, 18.4780002, 0.0 ], [ -69.8860493, 18.4780844, 0.0 ], [ -69.8860364, 18.4782725, 0.0 ], [ -69.8860202, 18.4783265, 0.0 ], [ -69.8863034, 18.4785642, 0.0 ], [ -69.8866382, 18.4782935, 0.0 ], [ -69.8874691, 18.4775848, 0.0 ] ] } },
{ "type": "Feature", "properties": { "Layer": "Predeterminada", "SubClasses": "AcDbEntity:AcDb2dPolyline", "EntityHandle": "108" }, "geometry": { "type": "LineString", "coordinates": [ [ -69.8879611, 18.476514, 0.0 ], [ -69.8877397, 18.4766966, 0.0 ], [ -69.8875933, 18.4767897, 0.0 ], [ -69.8874425, 18.476868, 0.0 ], [ -69.8871841, 18.4769797, 0.0 ], [ -69.8872788, 18.4771555, 0.0 ], [ -69.8875, 18.4775578, 0.0 ], [ -69.8879374, 18.4771693, 0.0 ], [ -69.8883057, 18.476902, 0.0 ], [ -69.8879611, 18.476514, 0.0 ] ] } },
{ "type": "Feature", "properties": { "Layer": "Predeterminada", "SubClasses": "AcDbEntity:AcDb2dPolyline", "EntityHandle": "113" }, "geometry": { "type": "LineString", "coordinates": [ [ -69.8887582, 18.4765267, 0.0 ], [ -69.8885568, 18.475953, 0.0 ], [ -69.8881512, 18.4763203, 0.0 ], [ -69.8885162, 18.476737, 0.0 ], [ -69.8887582, 18.4765267, 0.0 ] ] } },
{ "type": "Feature", "properties": { "Layer": "Predeterminada", "SubClasses": "AcDbEntity:AcDb2dPolyline", "EntityHandle": "119" }, "geometry": { "type": "LineString", "coordinates": [ [ -69.8883378, 18.4768779, 0.0 ], [ -69.8884853, 18.4767625, 0.0 ], [ -69.8881226, 18.4763483, 0.0 ], [ -69.8879904, 18.4764868, 0.0 ], [ -69.8883378, 18.4768779, 0.0 ] ] } },
{ "type": "Feature", "properties": { "Layer": "Predeterminada", "SubClasses": "AcDbEntity:AcDb2dPolyline", "EntityHandle": "11F" }, "geometry": { "type": "LineString", "coordinates": [ [ -69.8916325, 18.4726184, 0.0 ], [ -69.8912854, 18.4731242, 0.0 ], [ -69.8907166, 18.4738597, 0.0 ], [ -69.890448, 18.4741654, 0.0 ], [ -69.8903435, 18.4742979, 0.0 ], [ -69.8908036, 18.4745818, 0.0 ], [ -69.8910386, 18.4742171, 0.0 ], [ -69.8911968, 18.4739923, 0.0 ], [ -69.891574, 18.4734195, 0.0 ], [ -69.8917979, 18.4730898, 0.0 ], [ -69.8918291, 18.4730251, 0.0 ], [ -69.8917652, 18.4728533, 0.0 ], [ -69.8916905, 18.4727431, 0.0 ], [ -69.8916325, 18.4726184, 0.0 ] ] } },
{ "type": "Feature", "properties": { "Layer": "Predeterminada", "SubClasses": "AcDbEntity:AcDb2dPolyline", "EntityHandle": "12E" }, "geometry": { "type": "LineString", "coordinates": [ [ -69.8885888, 18.4759234, 0.0 ], [ -69.8887912, 18.4764999, 0.0 ], [ -69.8891355, 18.4762285, 0.0 ], [ -69.8899008, 18.4755932, 0.0 ], [ -69.8902274, 18.4753416, 0.0 ], [ -69.8904056, 18.4751541, 0.0 ], [ -69.8907813, 18.474615, 0.0 ], [ -69.8903161, 18.4743279, 0.0 ], [ -69.8893279, 18.4752061, 0.0 ], [ -69.8889463, 18.4755765, 0.0 ], [ -69.8885888, 18.4759234, 0.0 ] ] } },
{ "type": "Feature", "properties": { "Layer": "Predeterminada", "SubClasses": "AcDbEntity:AcDb2dPolyline", "EntityHandle": "13A" }, "geometry": { "type": "LineString", "coordinates": [ [ -69.8876242, 18.4757983, 0.0 ], [ -69.8876943, 18.4760913, 0.0 ], [ -69.8885098, 18.4758162, 0.0 ], [ -69.8884345, 18.4755934, 0.0 ], [ -69.8880593, 18.475678, 0.0 ], [ -69.8876242, 18.4757983, 0.0 ] ] } },
{ "type": "Feature", "properties": { "Layer": "Predeterminada", "SubClasses": "AcDbEntity:AcDb2dPolyline", "EntityHandle": "141" }, "geometry": { "type": "LineString", "coordinates": [ [ -69.8850265, 18.4773606, 0.0 ], [ -69.8852216, 18.4773611, 0.0 ], [ -69.8855395, 18.4773374, 0.0 ], [ -69.8854447, 18.4770242, 0.0 ], [ -69.8853862, 18.4766923, 0.0 ], [ -69.8849453, 18.4766822, 0.0 ], [ -69.88499, 18.4770806, 0.0 ], [ -69.8850265, 18.4773606, 0.0 ] ] } },
{ "type": "Feature", "properties": { "Layer": "Predeterminada", "SubClasses": "AcDbEntity:AcDb2dPolyline", "EntityHandle": "14A" }, "geometry": { "type": "LineString", "coordinates": [ [ -69.8863915, 18.4772373, 0.0 ], [ -69.8871301, 18.4769585, 0.0 ], [ -69.887035, 18.4767183, 0.0 ], [ -69.8869269, 18.4764026, 0.0 ], [ -69.8868009, 18.4760494, 0.0 ], [ -69.8856183, 18.4763654, 0.0 ], [ -69.8855604, 18.4765866, 0.0 ], [ -69.8855087, 18.4766622, 0.0 ], [ -69.8854258, 18.4766868, 0.0 ], [ -69.8854835, 18.477015, 0.0 ], [ -69.8855804, 18.4773344, 0.0 ], [ -69.8858308, 18.4773164, 0.0 ], [ -69.8861908, 18.4772907, 0.0 ], [ -69.8863915, 18.4772373, 0.0 ] ] } },
{ "type": "Feature", "properties": { "Layer": "Predeterminada", "SubClasses": "AcDbEntity:AcDb2dPolyline", "EntityHandle": "159" }, "geometry": { "type": "LineString", "coordinates": [ [ -69.88504, 18.4780941, 0.0 ], [ -69.8860081, 18.4781019, 0.0 ], [ -69.8859974, 18.4782653, 0.0 ], [ -69.8859795, 18.4783246, 0.0 ], [ -69.8859407, 18.4783786, 0.0 ], [ -69.8858096, 18.4784998, 0.0 ], [ -69.8857185, 18.478537, 0.0 ], [ -69.8856681, 18.4785582, 0.0 ], [ -69.8854829, 18.4785974, 0.0 ], [ -69.8850565, 18.4786305, 0.0 ], [ -69.88504, 18.4780941, 0.0 ] ] } },
{ "type": "Feature", "properties": { "Layer": "Predeterminada", "SubClasses": "AcDbEntity:AcDb2dPolyline", "EntityHandle": "165" }, "geometry": { "type": "LineString", "coordinates": [ [ -69.8852507, 18.4792287, 0.0 ], [ -69.8851387, 18.4792938, 0.0 ], [ -69.8850824, 18.4792284, 0.0 ], [ -69.8850559, 18.4791399, 0.0 ], [ -69.8850571, 18.4786706, 0.0 ], [ -69.8854887, 18.478637, 0.0 ], [ -69.8856799, 18.4785962, 0.0 ], [ -69.8857228, 18.4785786, 0.0 ], [ -69.8857816, 18.4786269, 0.0 ], [ -69.8852507, 18.4792287, 0.0 ] ] } },
{ "type": "Feature", "properties": { "Layer": "Predeterminada", "SubClasses": "AcDbEntity:AcDb2dPolyline", "EntityHandle": "170" }, "geometry": { "type": "LineString", "coordinates": [ [ -69.8830468, 18.4783056, 0.0 ], [ -69.8834, 18.4782107, 0.0 ], [ -69.8835208, 18.4781798, 0.0 ], [ -69.8837525, 18.4781588, 0.0 ], [ -69.8842805, 18.4781009, 0.0 ], [ -69.8841678, 18.4773845, 0.0 ], [ -69.8841303, 18.4773949, 0.0 ], [ -69.8837874, 18.4775466, 0.0 ], [ -69.8837396, 18.4775529, 0.0 ], [ -69.8836911, 18.4775347, 0.0 ], [ -69.8835776, 18.4773749, 0.0 ] ] } },
{ "type": "Feature", "properties": { "Layer": "Predeterminada", "SubClasses": "AcDbEntity:AcDbCircle:AcDbArc", "EntityHandle": "17D" }, "geometry": { "type": "LineString", "coordinates": [ [ -69.882964, 18.4779357, 0.0 ], [ -69.8835776, 18.4773749, 0.0 ] ] } },
{ "type": "Feature", "properties": { "Layer": "Predeterminada", "SubClasses": "AcDbEntity:AcDbLine", "EntityHandle": "17E" }, "geometry": { "type": "LineString", "coordinates": [ [ -69.882964, 18.4779357, 0.0 ], [ -69.8830468, 18.4783056, 0.0 ] ] } },
{ "type": "Feature", "properties": { "Layer": "Predeterminada", "SubClasses": "AcDbEntity:AcDb2dPolyline", "EntityHandle": "17F" }, "geometry": { "type": "LineString", "coordinates": [ [ -69.884986, 18.4773598, 0.0 ], [ -69.8849502, 18.4770854, 0.0 ], [ -69.8849051, 18.4766828, 0.0 ], [ -69.8840935, 18.4767313, 0.0 ], [ -69.8842007, 18.4773385, 0.0 ], [ -69.8842757, 18.4773349, 0.0 ], [ -69.884986, 18.4773598, 0.0 ] ] } },
{ "type": "Feature", "properties": { "Layer": "Predeterminada", "SubClasses": "AcDbEntity:AcDb2dPolyline", "EntityHandle": "187" }, "geometry": { "type": "LineString", "coordinates": [ [ -69.8849003, 18.476643, 0.0 ], [ -69.8847732, 18.4756837, 0.0 ], [ -69.8839379, 18.475601, 0.0 ], [ -69.8839928, 18.4760741, 0.0 ], [ -69.8840045, 18.4761551, 0.0 ], [ -69.8840858, 18.4766752, 0.0 ], [ -69.8840877, 18.4766916, 0.0 ], [ -69.8849003, 18.476643, 0.0 ] ] } },
{ "type": "Feature", "properties": { "Layer": "Predeterminada", "SubClasses": "AcDbEntity:AcDb2dPolyline", "EntityHandle": "190" }, "geometry": { "type": "LineString", "coordinates": [ [ -69.8849405, 18.4766421, 0.0 ], [ -69.8848139, 18.4756867, 0.0 ], [ -69.8850515, 18.4756997, 0.0 ], [ -69.8851473, 18.4756779, 0.0 ], [ -69.8856925, 18.47536, 0.0 ], [ -69.8857793, 18.4756934, 0.0 ], [ -69.8857774, 18.4757615, 0.0 ], [ -69.885587, 18.4763472, 0.0 ], [ -69.8855244, 18.4765702, 0.0 ], [ -69.8854867, 18.476632, 0.0 ], [ -69.8854006, 18.476653, 0.0 ], [ -69.8849405, 18.4766421, 0.0 ] ] } },
{ "type": "Feature", "properties": { "Layer": "Predeterminada", "SubClasses": "AcDbEntity:AcDb2dPolyline", "EntityHandle": "19D" }, "geometry": { "type": "LineString", "coordinates": [ [ -69.8857285, 18.4753397, 0.0 ], [ -69.8864738, 18.4749442, 0.0 ], [ -69.8867885, 18.4760114, 0.0 ], [ -69.8856365, 18.476324, 0.0 ], [ -69.8858164, 18.4757683, 0.0 ], [ -69.8858187, 18.475689, 0.0 ], [ -69.8857285, 18.4753397, 0.0 ] ] } },
{ "type": "Feature", "properties": { "Layer": "Predeterminada", "SubClasses": "AcDbEntity:AcDb2dPolyline", "EntityHandle": "1A5" }, "geometry": { "type": "LineString", "coordinates": [ [ -69.8872835, 18.4745089, 0.0 ], [ -69.8875726, 18.474328, 0.0 ], [ -69.8878691, 18.4741451, 0.0 ], [ -69.8879733, 18.4740808, 0.0 ], [ -69.888134, 18.4747017, 0.0 ], [ -69.8874277, 18.4750166, 0.0 ], [ -69.8873582, 18.4747707, 0.0 ], [ -69.8872835, 18.4745089, 0.0 ] ] } },
{ "type": "Feature", "properties": { "Layer": "Predeterminada", "SubClasses": "AcDbEntity:AcDb2dPolyline", "EntityHandle": "1AE" }, "geometry": { "type": "LineString", "coordinates": [ [ -69.891618, 18.4725756, 0.0 ], [ -69.8912714, 18.4730742, 0.0 ], [ -69.89095, 18.4724743, 0.0 ], [ -69.8912648, 18.4722494, 0.0 ], [ -69.8913986, 18.472178, 0.0 ], [ -69.891475, 18.4721379, 0.0 ], [ -69.891618, 18.4725756, 0.0 ] ] } },
{ "type": "Feature", "properties": { "Layer": "Predeterminada", "SubClasses": "AcDbEntity:AcDb2dPolyline", "EntityHandle": "1B6" }, "geometry": { "type": "LineString", "coordinates": [ [ -69.8891008, 18.4735892, 0.0 ], [ -69.8895874, 18.4733172, 0.0 ], [ -69.8898092, 18.4731708, 0.0 ], [ -69.8898527, 18.4732821, 0.0 ], [ -69.8900446, 18.473843, 0.0 ], [ -69.8892885, 18.4741893, 0.0 ], [ -69.8884899, 18.4745589, 0.0 ], [ -69.8881713, 18.4746861, 0.0 ], [ -69.8880096, 18.4740611, 0.0 ], [ -69.8888339, 18.473709, 0.0 ], [ -69.8891008, 18.4735892, 0.0 ] ] } },
{ "type": "Feature", "properties": { "Layer": "Predeterminada", "SubClasses": "AcDbEntity:AcDb2dPolyline", "EntityHandle": "1C2" }, "geometry": { "type": "LineString", "coordinates": [ [ -69.8900879, 18.4738461, 0.0 ], [ -69.8898903, 18.4732683, 0.0 ], [ -69.8898434, 18.4731485, 0.0 ], [ -69.8898741, 18.4731289, 0.0 ], [ -69.8904433, 18.4728002, 0.0 ], [ -69.8904871, 18.4727729, 0.0 ], [ -69.8909167, 18.4724967, 0.0 ], [ -69.8912455, 18.4731104, 0.0 ], [ -69.8906858, 18.4738343, 0.0 ], [ -69.8904172, 18.4741398, 0.0 ], [ -69.8903139, 18.4742708, 0.0 ], [ -69.8902534, 18.4741938, 0.0 ], [ -69.8900879, 18.4738461, 0.0 ] ] } },
{ "type": "Feature", "properties": { "Layer": "Predeterminada", "SubClasses": "AcDbEntity:AcDb2dPolyline", "EntityHandle": "1D0" }, "geometry": { "type": "LineString", "coordinates": [ [ -69.8843844, 18.4787527, 0.0 ], [ -69.8842867, 18.4781405, 0.0 ], [ -69.8837565, 18.4781987, 0.0 ], [ -69.8835276, 18.4782192, 0.0 ], [ -69.8834102, 18.4782494, 0.0 ], [ -69.8830547, 18.4783449, 0.0 ], [ -69.8831229, 18.4787337, 0.0 ], [ -69.8831613, 18.4789058, 0.0 ], [ -69.8843844, 18.4787527, 0.0 ] ] } },
{ "type": "Feature", "properties": { "Layer": "Predeterminada", "SubClasses": "AcDbEntity:AcDb2dPolyline", "EntityHandle": "1DA" }, "geometry": { "type": "LineString", "coordinates": [ [ -69.8843578, 18.4809757, 0.0 ], [ -69.8843301, 18.4810829, 0.0 ], [ -69.8838773, 18.4811483, 0.0 ], [ -69.8838742, 18.4811445, 0.0 ], [ -69.8838612, 18.4810465, 0.0 ], [ -69.8839843, 18.4802492, 0.0 ], [ -69.8841904, 18.4802427, 0.0 ], [ -69.8843045, 18.4802699, 0.0 ], [ -69.8847067, 18.480417, 0.0 ], [ -69.8845989, 18.4805617, 0.0 ], [ -69.8844826, 18.4807361, 0.0 ], [ -69.8843578, 18.4809757, 0.0 ] ] } },
{ "type": "Feature", "properties": { "Layer": "Predeterminada", "SubClasses": "AcDbEntity:AcDb2dPolyline", "EntityHandle": "1E7" }, "geometry": { "type": "LineString", "coordinates": [ [ -69.883408, 18.480305, 0.0 ], [ -69.8834882, 18.4802917, 0.0 ], [ -69.8839433, 18.4802519, 0.0 ], [ -69.8838206, 18.4810461, 0.0 ], [ -69.8838351, 18.4811544, 0.0 ], [ -69.8833798, 18.4812201, 0.0 ], [ -69.8833813, 18.4811344, 0.0 ], [ -69.8833543, 18.4808959, 0.0 ], [ -69.88334, 18.4807114, 0.0 ], [ -69.8832583, 18.4803954, 0.0 ], [ -69.8832368, 18.4803181, 0.0 ], [ -69.883408, 18.480305, 0.0 ] ] } },
{ "type": "Feature", "properties": { "Layer": "Predeterminada", "SubClasses": "AcDbEntity:AcDb2dPolyline", "EntityHandle": "1F4" }, "geometry": { "type": "LineString", "coordinates": [ [ -69.8845202, 18.479341, 0.0 ], [ -69.8851032, 18.4793132, 0.0 ], [ -69.885048, 18.4792472, 0.0 ], [ -69.8850167, 18.4791457, 0.0 ], [ -69.8850172, 18.4786762, 0.0 ], [ -69.884431, 18.4787859, 0.0 ], [ -69.8845289, 18.4792867, 0.0 ], [ -69.8845202, 18.479341, 0.0 ] ] } },
{ "type": "Feature", "properties": { "Layer": "Predeterminada", "SubClasses": "AcDbEntity:AcDb2dPolyline", "EntityHandle": "1FD" }, "geometry": { "type": "LineString", "coordinates": [ [ -69.8845202, 18.479341, 0.0 ], [ -69.884519, 18.4793487, 0.0 ], [ -69.8844897, 18.4793965, 0.0 ], [ -69.8841647, 18.4797015, 0.0 ], [ -69.8840806, 18.4798092, 0.0 ], [ -69.8840392, 18.4799412, 0.0 ], [ -69.884029, 18.4799892, 0.0 ], [ -69.8839909, 18.480209, 0.0 ], [ -69.8841944, 18.4802029, 0.0 ], [ -69.8843161, 18.4802316, 0.0 ], [ -69.8847281, 18.4803822, 0.0 ], [ -69.8847695, 18.4802869, 0.0 ], [ -69.8847833, 18.4802525, 0.0 ], [ -69.8851123, 18.4796537, 0.0 ], [ -69.8852318, 18.4794814, 0.0 ], [ -69.8852033, 18.4794314, 0.0 ], [ -69.8851191, 18.4793323, 0.0 ], [ -69.8851032, 18.4793132, 0.0 ], [ -69.8845202, 18.479341, 0.0 ] ] } },
{ "type": "Feature", "properties": { "Layer": "Predeterminada", "SubClasses": "AcDbEntity:AcDb2dPolyline", "EntityHandle": "211" }, "geometry": { "type": "LineString", "coordinates": [ [ -69.8867036, 18.4755819, 0.0 ], [ -69.886827, 18.4760003, 0.0 ], [ -69.8870913, 18.4759192, 0.0 ], [ -69.886963, 18.4755015, 0.0 ], [ -69.8867036, 18.4755819, 0.0 ] ] } },
{ "type": "Feature", "properties": { "Layer": "Predeterminada", "SubClasses": "AcDbEntity:AcDb2dPolyline", "EntityHandle": "217" }, "geometry": { "type": "LineString", "coordinates": [ [ -69.8866929, 18.4755456, 0.0 ], [ -69.8865099, 18.4749251, 0.0 ], [ -69.8868912, 18.4747219, 0.0 ], [ -69.8872477, 18.4745293, 0.0 ], [ -69.8873198, 18.4747817, 0.0 ], [ -69.8873954, 18.4750495, 0.0 ], [ -69.8875763, 18.4757706, 0.0 ], [ -69.8871288, 18.4759078, 0.0 ], [ -69.8869895, 18.4754539, 0.0 ], [ -69.8866929, 18.4755456, 0.0 ] ] } },
{ "type": "Feature", "properties": { "Layer": "Predeterminada", "SubClasses": "AcDbEntity:AcDb2dPolyline", "EntityHandle": "222" }, "geometry": { "type": "LineString", "coordinates": [ [ -69.888751, 18.4752017, 0.0 ], [ -69.8887614, 18.4751983, 0.0 ], [ -69.8889985, 18.4749745, 0.0 ], [ -69.8889113, 18.4749309, 0.0 ], [ -69.8888401, 18.4748962, 0.0 ], [ -69.8886937, 18.474964, 0.0 ], [ -69.8886806, 18.4749787, 0.0 ], [ -69.8887464, 18.4751995, 0.0 ], [ -69.888751, 18.4752017, 0.0 ] ] } },
{ "type": "Feature", "properties": { "Layer": "Predeterminada", "SubClasses": "AcDbEntity:AcDb2dPolyline", "EntityHandle": "22C" }, "geometry": { "type": "LineString", "coordinates": [ [ -69.8879587, 18.4764407, 0.0 ], [ -69.8885425, 18.475912, 0.0 ], [ -69.8885227, 18.4758541, 0.0 ], [ -69.8877084, 18.4761287, 0.0 ], [ -69.8877461, 18.4762013, 0.0 ], [ -69.8879587, 18.4764407, 0.0 ] ] } },
{ "type": "Feature", "properties": { "Layer": "Predeterminada", "SubClasses": "AcDbEntity:AcDbSpline", "EntityHandle": "233" }, "geometry": { "type": "LineString", "coordinates": [ [ -69.8878523, 18.4752593 ], [ -69.887851, 18.4752564 ], [ -69.8878497, 18.4752536 ], [ -69.8878484, 18.4752508 ], [ -69.8878471, 18.4752479 ], [ -69.8878458, 18.4752451 ], [ -69.8878446, 18.4752423 ], [ -69.8878433, 18.4752394 ], [ -69.887842, 18.4752366 ], [ -69.8878407, 18.4752338 ], [ -69.8878395, 18.475231 ], [ -69.8878382, 18.4752281 ], [ -69.8878369, 18.4752253 ], [ -69.8878356, 18.4752225 ], [ -69.8878344, 18.4752197 ], [ -69.8878331, 18.4752169 ], [ -69.8878318, 18.475214 ], [ -69.8878306, 18.4752112 ], [ -69.8878293, 18.4752084 ], [ -69.887828, 18.4752056 ], [ -69.8878268, 18.4752028 ], [ -69.8878255, 18.4751999 ], [ -69.8878242, 18.4751971 ], [ -69.887823, 18.4751943 ], [ -69.8878217, 18.4751915 ], [ -69.8878204, 18.4751887 ], [ -69.8878192, 18.4751859 ], [ -69.8878179, 18.4751831 ], [ -69.8878167, 18.4751802 ], [ -69.8878154, 18.4751774 ], [ -69.8878141, 18.4751746 ], [ -69.8878129, 18.4751718 ] ] } },
{ "type": "Feature", "properties": { "Layer": "Predeterminada", "SubClasses": "AcDbEntity:AcDbSpline", "EntityHandle": "234" }, "geometry": { "type": "LineString", "coordinates": [ [ -69.8878129, 18.4751718 ], [ -69.8878101, 18.4751731 ], [ -69.8878074, 18.4751745 ], [ -69.8878046, 18.4751758 ], [ -69.8878018, 18.4751772 ], [ -69.8877991, 18.4751785 ], [ -69.8877963, 18.4751798 ], [ -69.8877935, 18.4751812 ], [ -69.8877908, 18.4751825 ], [ -69.887788, 18.4751839 ], [ -69.8877852, 18.4751852 ], [ -69.8877825, 18.4751865 ], [ -69.8877797, 18.4751879 ], [ -69.8877769, 18.4751892 ], [ -69.8877742, 18.4751905 ], [ -69.8877714, 18.4751918 ], [ -69.8877686, 18.4751932 ], [ -69.8877659, 18.4751945 ], [ -69.8877631, 18.4751958 ], [ -69.8877603, 18.4751972 ], [ -69.8877576, 18.4751985 ], [ -69.8877548, 18.4751998 ], [ -69.887752, 18.4752011 ], [ -69.8877493, 18.4752024 ], [ -69.8877465, 18.4752038 ], [ -69.8877437, 18.4752051 ], [ -69.887741, 18.4752064 ], [ -69.8877382, 18.4752077 ], [ -69.8877355, 18.4752091 ], [ -69.8877327, 18.4752104 ], [ -69.8877299, 18.4752117 ], [ -69.8877272, 18.475213 ] ] } },
{ "type": "Feature", "properties": { "Layer": "Predeterminada", "SubClasses": "AcDbEntity:AcDbSpline", "EntityHandle": "235" }, "geometry": { "type": "LineString", "coordinates": [ [ -69.8877272, 18.475213 ], [ -69.8877246, 18.4752118 ], [ -69.887722, 18.4752106 ], [ -69.8877193, 18.4752093 ], [ -69.8877167, 18.4752081 ], [ -69.8877141, 18.4752069 ], [ -69.8877115, 18.4752056 ], [ -69.8877089, 18.4752044 ], [ -69.8877063, 18.4752031 ], [ -69.8877037, 18.4752019 ], [ -69.8877011, 18.4752007 ], [ -69.8876985, 18.4751994 ], [ -69.8876959, 18.4751982 ], [ -69.8876933, 18.4751969 ], [ -69.8876907, 18.4751957 ], [ -69.887688, 18.4751945 ], [ -69.8876854, 18.4751932 ], [ -69.8876828, 18.475192 ], [ -69.8876802, 18.4751907 ], [ -69.8876776, 18.4751895 ], [ -69.887675, 18.4751883 ], [ -69.8876724, 18.475187 ], [ -69.8876698, 18.4751858 ], [ -69.8876672, 18.4751845 ], [ -69.8876646, 18.4751833 ], [ -69.887662, 18.4751821 ], [ -69.8876594, 18.4751808 ], [ -69.8876568, 18.4751796 ], [ -69.8876541, 18.4751784 ], [ -69.8876515, 18.4751771 ], [ -69.8876489, 18.4751759 ], [ -69.8876463, 18.4751747 ] ] } },
{ "type": "Feature", "properties": { "Layer": "Predeterminada", "SubClasses": "AcDbEntity:AcDb2dPolyline", "EntityHandle": "236" }, "geometry": { "type": "LineString", "coordinates": [ [ -69.8876463, 18.4751747, 0.0 ], [ -69.8875462, 18.4750076, 0.0 ], [ -69.8874382, 18.4750557, 0.0 ], [ -69.8876147, 18.4757595, 0.0 ], [ -69.8880298, 18.4756446, 0.0 ], [ -69.8879288, 18.4752771, 0.0 ], [ -69.8878712, 18.4753013, 0.0 ] ] } },
{ "type": "Feature", "properties": { "Layer": "Predeterminada", "SubClasses": "AcDbEntity:AcDbSpline", "EntityHandle": "23F" }, "geometry": { "type": "LineString", "coordinates": [ [ -69.8878712, 18.4753013 ], [ -69.8878706, 18.4753 ], [ -69.88787, 18.4752986 ], [ -69.8878694, 18.4752973 ], [ -69.8878688, 18.4752959 ], [ -69.8878682, 18.4752946 ], [ -69.8878675, 18.4752932 ], [ -69.8878669, 18.4752918 ], [ -69.8878663, 18.4752905 ], [ -69.8878657, 18.4752891 ], [ -69.8878651, 18.4752878 ], [ -69.8878645, 18.4752864 ], [ -69.8878639, 18.4752851 ], [ -69.8878633, 18.4752837 ], [ -69.8878627, 18.4752824 ], [ -69.887862, 18.475281 ], [ -69.8878614, 18.4752796 ], [ -69.8878608, 18.4752783 ], [ -69.8878602, 18.4752769 ], [ -69.8878596, 18.4752756 ], [ -69.887859, 18.4752742 ], [ -69.8878584, 18.4752729 ], [ -69.8878578, 18.4752715 ], [ -69.8878572, 18.4752701 ], [ -69.8878565, 18.4752688 ], [ -69.8878559, 18.4752674 ], [ -69.8878553, 18.4752661 ], [ -69.8878547, 18.4752647 ], [ -69.8878541, 18.4752634 ], [ -69.8878535, 18.475262 ], [ -69.8878529, 18.4752606 ], [ -69.8878523, 18.4752593 ] ] } },
{ "type": "Feature", "properties": { "Layer": "Predeterminada", "SubClasses": "AcDbEntity:AcDbSpline", "EntityHandle": "240" }, "geometry": { "type": "LineString", "coordinates": [ [ -69.8875821, 18.4749916 ], [ -69.8875851, 18.4749966 ], [ -69.8875881, 18.4750016 ], [ -69.8875911, 18.4750066 ], [ -69.8875942, 18.4750116 ], [ -69.8875972, 18.4750166 ], [ -69.8876002, 18.4750216 ], [ -69.8876032, 18.4750266 ], [ -69.8876062, 18.4750316 ], [ -69.8876091, 18.4750366 ], [ -69.8876121, 18.4750416 ], [ -69.8876151, 18.4750465 ], [ -69.8876181, 18.4750515 ], [ -69.8876211, 18.4750565 ], [ -69.8876241, 18.4750615 ], [ -69.8876271, 18.4750665 ], [ -69.88763, 18.4750714 ], [ -69.887633, 18.4750764 ], [ -69.887636, 18.4750814 ], [ -69.887639, 18.4750864 ], [ -69.887642, 18.4750913 ], [ -69.8876449, 18.4750963 ], [ -69.8876479, 18.4751013 ], [ -69.8876509, 18.4751062 ], [ -69.8876539, 18.4751112 ], [ -69.8876569, 18.4751162 ], [ -69.8876599, 18.4751211 ], [ -69.8876629, 18.4751261 ], [ -69.8876658, 18.475131 ], [ -69.8876688, 18.475136 ], [ -69.8876718, 18.475141 ], [ -69.8876748, 18.4751459 ] ] } },
{ "type": "Feature", "properties": { "Layer": "Predeterminada", "SubClasses": "AcDbEntity:AcDbSpline", "EntityHandle": "241" }, "geometry": { "type": "LineString", "coordinates": [ [ -69.8876748, 18.4751459 ], [ -69.8876765, 18.4751467 ], [ -69.8876782, 18.4751475 ], [ -69.8876799, 18.4751483 ], [ -69.8876816, 18.4751491 ], [ -69.8876833, 18.4751499 ], [ -69.887685, 18.4751507 ], [ -69.8876867, 18.4751515 ], [ -69.8876884, 18.4751523 ], [ -69.8876901, 18.4751531 ], [ -69.8876918, 18.475154 ], [ -69.8876935, 18.4751548 ], [ -69.8876952, 18.4751556 ], [ -69.8876969, 18.4751564 ], [ -69.8876985, 18.4751572 ], [ -69.8877002, 18.475158 ], [ -69.8877019, 18.4751588 ], [ -69.8877036, 18.4751596 ], [ -69.8877053, 18.4751604 ], [ -69.887707, 18.4751612 ], [ -69.8877087, 18.475162 ], [ -69.8877104, 18.4751628 ], [ -69.8877121, 18.4751636 ], [ -69.8877138, 18.4751644 ], [ -69.8877155, 18.4751652 ], [ -69.8877172, 18.4751661 ], [ -69.8877189, 18.4751669 ], [ -69.8877206, 18.4751677 ], [ -69.8877222, 18.4751685 ], [ -69.8877239, 18.4751693 ], [ -69.8877256, 18.4751701 ], [ -69.8877274, 18.4751708 ] ] } },
{ "type": "Feature", "properties": { "Layer": "Predeterminada", "SubClasses": "AcDbEntity:AcDbSpline", "EntityHandle": "242" }, "geometry": { "type": "LineString", "coordinates": [ [ -69.8877274, 18.4751708 ], [ -69.8877307, 18.4751692 ], [ -69.8877341, 18.4751676 ], [ -69.8877375, 18.4751659 ], [ -69.8877409, 18.4751643 ], [ -69.8877443, 18.4751627 ], [ -69.8877477, 18.475161 ], [ -69.8877511, 18.4751594 ], [ -69.8877545, 18.4751578 ], [ -69.8877579, 18.4751561 ], [ -69.8877613, 18.4751545 ], [ -69.8877647, 18.4751529 ], [ -69.8877682, 18.4751513 ], [ -69.8877716, 18.4751496 ], [ -69.887775, 18.475148 ], [ -69.8877784, 18.4751464 ], [ -69.8877818, 18.4751447 ], [ -69.8877852, 18.4751431 ], [ -69.8877886, 18.4751415 ], [ -69.887792, 18.4751399 ], [ -69.8877954, 18.4751382 ], [ -69.8877988, 18.4751366 ], [ -69.8878022, 18.475135 ], [ -69.8878056, 18.4751333 ], [ -69.887809, 18.4751317 ], [ -69.8878124, 18.4751301 ], [ -69.8878158, 18.4751284 ], [ -69.8878192, 18.4751268 ], [ -69.8878226, 18.4751252 ], [ -69.887826, 18.4751235 ], [ -69.8878294, 18.4751219 ], [ -69.8878328, 18.4751203 ] ] } },
{ "type": "Feature", "properties": { "Layer": "Predeterminada", "SubClasses": "AcDbEntity:AcDbSpline", "EntityHandle": "243" }, "geometry": { "type": "LineString", "coordinates": [ [ -69.8878328, 18.4751203 ], [ -69.8878346, 18.4751244 ], [ -69.8878365, 18.4751286 ], [ -69.8878383, 18.4751328 ], [ -69.8878402, 18.4751369 ], [ -69.887842, 18.4751411 ], [ -69.8878439, 18.4751452 ], [ -69.8878457, 18.4751494 ], [ -69.8878476, 18.4751535 ], [ -69.8878495, 18.4751577 ], [ -69.8878513, 18.4751618 ], [ -69.8878532, 18.475166 ], [ -69.8878551, 18.4751701 ], [ -69.887857, 18.4751743 ], [ -69.8878588, 18.4751784 ], [ -69.8878607, 18.4751826 ], [ -69.8878626, 18.4751867 ], [ -69.8878645, 18.4751909 ], [ -69.8878663, 18.4751951 ], [ -69.8878682, 18.4751992 ], [ -69.8878701, 18.4752034 ], [ -69.887872, 18.4752076 ], [ -69.8878738, 18.4752118 ], [ -69.8878757, 18.4752159 ], [ -69.8878776, 18.4752201 ], [ -69.8878795, 18.4752243 ], [ -69.8878813, 18.4752285 ], [ -69.8878832, 18.4752328 ], [ -69.8878851, 18.475237 ], [ -69.8878869, 18.4752412 ], [ -69.8878888, 18.4752455 ], [ -69.8878907, 18.4752497 ] ] } },
{ "type": "Feature", "properties": { "Layer": "Predeterminada", "SubClasses": "AcDbEntity:AcDb2dPolyline", "EntityHandle": "244" }, "geometry": { "type": "LineString", "coordinates": [ [ -69.8878907, 18.4752497, 0.0 ], [ -69.8882591, 18.4750946, 0.0 ], [ -69.8881454, 18.4747404, 0.0 ], [ -69.8875821, 18.4749916, 0.0 ] ] } },
{ "type": "Feature", "properties": { "Layer": "Predeterminada", "SubClasses": "AcDbEntity:AcDb2dPolyline", "EntityHandle": "24A" }, "geometry": { "type": "LineString", "coordinates": [ [ -69.8882719, 18.4751326, 0.0 ], [ -69.8884213, 18.4755553, 0.0 ], [ -69.8880686, 18.4756349, 0.0 ], [ -69.8879659, 18.4752614, 0.0 ], [ -69.8882719, 18.4751326, 0.0 ] ] } },
{ "type": "Feature", "properties": { "Layer": "Predeterminada", "SubClasses": "AcDbEntity:AcDb2dPolyline", "EntityHandle": "250" }, "geometry": { "type": "LineString", "coordinates": [ [ -69.8831684, 18.4789453, 0.0 ], [ -69.8832673, 18.4793816, 0.0 ], [ -69.8837147, 18.4793593, 0.0 ], [ -69.8844836, 18.4793227, 0.0 ], [ -69.8844895, 18.4792875, 0.0 ], [ -69.8843915, 18.4787922, 0.0 ], [ -69.8831684, 18.4789453, 0.0 ] ] } }
]
}
