{
    "type": "FeatureCollection",
    "features": [
        {
            "type": "Feature",
            "properties": {
                "tile": "bound_principal",
                "stroke": "#00FF00",
                "stroke-width": 2
            },
            "geometry": {
                "type": "LineString",
                "coordinates": [
                    [-92.634733181956875, 16.73668761112593],
                    [-92.632939618043139, 16.73668761112593],
                    [-92.632939618043139, 16.738405188874069],
                    [-92.634733181956875, 16.738405188874069],
                    [-92.634733181956875, 16.73668761112593]
                ]
            }
        },
        {
            "type": "Feature",
            "properties": {
                "tile": "18/63617/118706",
                "stroke": "#FF0000",
                "stroke-width": 2
            },
            "geometry": {
                "type": "LineString",
                "coordinates": [
                    [-92.635345458984375, 16.737482256106968],
                    [-92.63397216796875, 16.737482256106968],
                    [-92.63397216796875, 16.738797362151036],
                    [-92.635345458984375, 16.738797362151036],
                    [-92.635345458984375, 16.737482256106968]
                ]
            }
        },
        {
            "type": "Feature",
            "properties": {
                "tile": "18/63617/118707",
                "stroke": "#FF0000",
                "stroke-width": 2
            },
            "geometry": {
                "type": "LineString",
                "coordinates": [
                    [-92.635345458984375, 16.736167140985216],
                    [-92.63397216796875, 16.736167140985216],
                    [-92.63397216796875, 16.737482256106968],
                    [-92.635345458984375, 16.737482256106968],
                    [-92.635345458984375, 16.736167140985216]
                ]
            }
        },
        {
            "type": "Feature",
            "properties": {
                "tile": "18/63618/118706",
                "stroke": "#FF0000",
                "stroke-width": 2
            },
            "geometry": {
                "type": "LineString",
                "coordinates": [
                    [-92.63397216796875, 16.737482256106968],
                    [-92.632598876953125, 16.737482256106968],
                    [-92.632598876953125, 16.738797362151036],
                    [-92.63397216796875, 16.738797362151036],
                    [-92.63397216796875, 16.737482256106968]
                ]
            }
        },
        {
            "type": "Feature",
            "properties": {
                "tile": "18/63618/118707",
                "stroke": "#FF0000",
                "stroke-width": 2
            },
            "geometry": {
                "type": "LineString",
                "coordinates": [
                    [-92.63397216796875, 16.736167140985216],
                    [-92.632598876953125, 16.736167140985216],
                    [-92.632598876953125, 16.737482256106968],
                    [-92.63397216796875, 16.737482256106968],
                    [-92.63397216796875, 16.736167140985216]
                ]
            }
        },
        {
            "type": "Feature",
            "properties": {
                "type": "street",
                "stroke": "#FFFF00",
                "stroke-width": 2
            },
            "geometry": {
                "type": "LineString",
                "coordinates": [
                    [-92.63277130000003, 16.737673300000008],
                    [-92.634646100000012, 16.737581900000006]
                ]
            }
        },
        {
            "type": "Feature",
            "properties": {
                "label": "Location",
                "marker-color": "#0000FF"
            },
            "geometry": {
                "type": "Point",
                "coordinates": [-92.6338364, 16.7375464]
            }
        }
    ]
}
