{
  "type": "FeatureCollection",
  "features": [
    {
      "type": "Feature",
      "properties": {
        "id": 8916026,
        "highway": "service"
      },
      "geometry": {
        "type": "LineString",
        "coordinates": [
          [
            -122.4178859,
            37.8017176
          ],
          [
            -122.4185522,
            37.8016358
          ]
        ]
      }
    },
    {
      "type": "Feature",
      "properties": {
        "id": 8916880,
        "highway": "residential"
      },
      "geometry": {
        "type": "LineString",
        "coordinates": [
          [
            -122.4190385,
            37.8028105
          ],
          [
            -122.4189278,
            37.8022747
          ],
          [
            -122.4189258,
            37.8022582
          ],
          [
            -122.4189252,
            37.8022439
          ],
          [
            -122.4189272,
            37.8022291
          ],
          [
            -122.4189325,
            37.8022135
          ],
          [
            -122.4189402,
            37.8022009
          ],
          [
            -122.4189506,
            37.8021871
          ],
          [
            -122.4189658,
            37.8021761
          ],
          [
            -122.41898,
            37.8021689
          ],
          [
            -122.4189938,
            37.8021596
          ],
          [
            -122.4190064,
            37.8021472
          ],
          [
            -122.4190166,
            37.8021325
          ]
        ]
      }
    },
    {
      "type": "Feature",
      "properties": {
        "id": 8920642,
        "highway": "service"
      },
      "geometry": {
        "type": "LineString",
        "coordinates": [
          [
            -122.4190783,
            37.8011191
          ],
          [
            -122.419161,
            37.801539
          ]
        ]
      }
    },
    {
      "type": "Feature",
      "properties": {
        "id": 23157849,
        "highway": "tertiary"
      },
      "geometry": {
        "type": "LineString",
        "coordinates": [
          [
            -122.4196302,
            37.8019952
          ],
          [
            -122.4196435,
            37.801995
          ],
          [
            -122.4196624,
            37.8019948
          ],
          [
            -122.4196925,
            37.801993
          ],
          [
            -122.4197228,
            37.8019898
          ],
          [
            -122.4197568,
            37.8019855
          ],
          [
            -122.4202178,
            37.8019305
          ]
        ]
      }
    },
    {
      "type": "Feature",
      "properties": {
        "id": 87297164,
        "highway": "tertiary"
      },
      "geometry": {
        "type": "LineString",
        "coordinates": [
          [
            -122.4196302,
            37.8019952
          ],
          [
            -122.4196161,
            37.8019296
          ],
          [
            -122.4196086,
            37.8018925
          ],
          [
            -122.4194588,
            37.8011497
          ],
          [
            -122.4194425,
            37.8010682
          ],
          [
            -122.4194307,
            37.8010098
          ],
          [
            -122.4193177,
            37.800452
          ],
          [
            -122.4193041,
            37.8003854
          ],
          [
            -122.4192721,
            37.8002198
          ],
          [
            -122.4192566,
            37.8001394
          ]
        ]
      }
    },
    {
      "type": "Feature",
      "properties": {
        "id": 88396406,
        "highway": "tertiary"
      },
      "geometry": {
        "type": "LineString",
        "coordinates": [
          [
            -122.4201941,
            37.8048014
          ],
          [
            -122.4201786,
            37.8047217
          ],
          [
            -122.4200833,
            37.804232
          ],
          [
            -122.4200106,
            37.8038867
          ],
          [
            -122.4199911,
            37.8037887
          ],
          [
            -122.419837,
            37.8030155
          ],
          [
            -122.4198179,
            37.8029189
          ],
          [
            -122.419806,
            37.8028645
          ],
          [
            -122.4196452,
            37.8020751
          ],
          [
            -122.4196302,
            37.8019952
          ]
        ]
      }
    },
    {
      "type": "Feature",
      "properties": {
        "id": 110803260,
        "highway": "footway"
      },
      "geometry": {
        "type": "LineString",
        "coordinates": [
          [
            -122.4197093,
            37.8019257
          ],
          [
            -122.419629,
            37.801929
          ],
          [
            -122.4196161,
            37.8019296
          ],
          [
            -122.4195928,
            37.8019305
          ],
          [
            -122.4195242,
            37.8019334
          ]
        ]
      }
    },
    {
      "type": "Feature",
      "properties": {
        "id": 110803261,
        "highway": "steps"
      },
      "geometry": {
        "type": "LineString",
        "coordinates": [
          [
            -122.4190597,
            37.8021655
          ],
          [
            -122.4195278,
            37.802104
          ]
        ]
      }
    },
    {
      "type": "Feature",
      "properties": {
        "id": 119458100,
        "highway": "footway"
      },
      "geometry": {
        "type": "LineString",
        "coordinates": [
          [
            -122.4189242,
            37.8021655
          ],
          [
            -122.41898,
            37.8021689
          ],
          [
            -122.4190597,
            37.8021655
          ]
        ]
      }
    },
    {
      "type": "Feature",
      "properties": {
        "id": 119458101,
        "highway": "steps"
      },
      "geometry": {
        "type": "LineString",
        "coordinates": [
          [
            -122.4180927,
            37.8022734
          ],
          [
            -122.418283,
            37.802251
          ],
          [
            -122.4183904,
            37.8022465
          ],
          [
            -122.4185607,
            37.8022137
          ],
          [
            -122.4185768,
            37.8022107
          ],
          [
            -122.4186105,
            37.8022058
          ],
          [
            -122.4186427,
            37.8022058
          ],
          [
            -122.4186668,
            37.8022079
          ]
        ]
      }
    },
    {
      "type": "Feature",
      "properties": {
        "id": 179749155,
        "highway": "footway"
      },
      "geometry": {
        "type": "LineString",
        "coordinates": [
          [
            -122.4195657,
            37.8020837
          ],
          [
            -122.419625,
            37.8020773
          ],
          [
            -122.4196452,
            37.8020751
          ],
          [
            -122.4196597,
            37.8020735
          ],
          [
            -122.4197387,
            37.8020649
          ]
        ]
      }
    },
    {
      "type": "Feature",
      "properties": {
        "id": 179749156,
        "highway": "steps"
      },
      "geometry": {
        "type": "LineString",
        "coordinates": [
          [
            -122.4186668,
            37.8022079
          ],
          [
            -122.4187005,
            37.8022029
          ],
          [
            -122.4187771,
            37.8021926
          ],
          [
            -122.4188046,
            37.8021868
          ],
          [
            -122.4188413,
            37.8021751
          ],
          [
            -122.4188735,
            37.8021723
          ],
          [
            -122.4189082,
            37.802174
          ],
          [
            -122.4189242,
            37.8021655
          ]
        ]
      }
    },
    {
      "type": "Feature",
      "properties": {
        "id": 198877614,
        "highway": "steps"
      },
      "geometry": {
        "type": "LineString",
        "coordinates": [
          [
            -122.4189601,
            37.8020137
          ],
          [
            -122.4188758,
            37.8020201
          ],
          [
            -122.4188065,
            37.8020315
          ],
          [
            -122.4187645,
            37.8020406
          ],
          [
            -122.4187251,
            37.8020483
          ],
          [
            -122.4186722,
            37.8020548
          ],
          [
            -122.4185646,
            37.8020604
          ],
          [
            -122.4184672,
            37.8020711
          ],
          [
            -122.4183785,
            37.8020888
          ],
          [
            -122.4183475,
            37.8020936
          ],
          [
            -122.4183198,
            37.8020956
          ],
          [
            -122.4182961,
            37.8020949
          ],
          [
            -122.4182709,
            37.8020921
          ],
          [
            -122.4182442,
            37.8020916
          ],
          [
            -122.4181152,
            37.8021091
          ],
          [
            -122.418057,
            37.8021291
          ]
        ]
      }
    },
    {
      "type": "Feature",
      "properties": {
        "id": 402111597,
        "highway": "residential"
      },
      "geometry": {
        "type": "LineString",
        "coordinates": [
          [
            -122.4196302,
            37.8019952
          ],
          [
            -122.4196077,
            37.8019959
          ],
          [
            -122.4195397,
            37.8019977
          ],
          [
            -122.4195324,
            37.8019983
          ],
          [
            -122.4195245,
            37.8019995
          ],
          [
            -122.4195162,
            37.8020015
          ],
          [
            -122.4195086,
            37.8020041
          ],
          [
            -122.4195015,
            37.8020073
          ],
          [
            -122.4194949,
            37.8020111
          ],
          [
            -122.4194886,
            37.8020157
          ],
          [
            -122.4194836,
            37.8020202
          ],
          [
            -122.4194241,
            37.8020754
          ],
          [
            -122.4194176,
            37.8020809
          ],
          [
            -122.4194103,
            37.8020858
          ],
          [
            -122.419402,
            37.8020898
          ],
          [
            -122.4193933,
            37.8020926
          ],
          [
            -122.419383,
            37.8020947
          ],
          [
            -122.4193727,
            37.8020953
          ],
          [
            -122.4193628,
            37.8020948
          ],
          [
            -122.4193534,
            37.8020935
          ],
          [
            -122.4193437,
            37.8020908
          ],
          [
            -122.4193355,
            37.8020878
          ]
        ]
      }
    },
    {
      "type": "Feature",
      "properties": {
        "id": 691835287,
        "highway": "footway"
      },
      "geometry": {
        "type": "LineString",
        "coordinates": [
          [
            -122.4195437,
            37.8020555
          ],
          [
            -122.4195508,
            37.8020917
          ]
        ]
      }
    },
    {
      "type": "Feature",
      "properties": {
        "id": 691835288,
        "highway": "footway"
      },
      "geometry": {
        "type": "LineString",
        "coordinates": [
          [
            -122.4195242,
            37.8019334
          ],
          [
            -122.4194902,
            37.8019413
          ]
        ]
      }
    },
    {
      "type": "Feature",
      "properties": {
        "id": 691835289,
        "highway": "footway"
      },
      "geometry": {
        "type": "LineString",
        "coordinates": [
          [
            -122.4195278,
            37.802104
          ],
          [
            -122.4195508,
            37.8020917
          ],
          [
            -122.4195657,
            37.8020837
          ]
        ]
      }
    },
    {
      "type": "Feature",
      "properties": {
        "id": 691835290,
        "highway": "footway"
      },
      "geometry": {
        "type": "LineString",
        "coordinates": [
          [
            -122.4195242,
            37.8019334
          ],
          [
            -122.4195324,
            37.8019983
          ],
          [
            -122.4195437,
            37.8020555
          ]
        ]
      }
    },
    {
      "type": "Feature",
      "properties": {
        "id": 775130292,
        "highway": "footway"
      },
      "geometry": {
        "type": "LineString",
        "coordinates": [
          [
            -122.4193741,
            37.8011559
          ],
          [
            -122.4195242,
            37.8019334
          ]
        ]
      }
    },
    {
      "type": "Feature",
      "properties": {
        "id": 775130295,
        "highway": "footway"
      },
      "geometry": {
        "type": "LineString",
        "coordinates": [
          [
            -122.4197111,
            37.8028773
          ],
          [
            -122.4195508,
            37.8020917
          ]
        ]
      }
    },
    {
      "type": "Feature",
      "properties": {
        "id": 951848647,
        "highway": "service"
      },
      "geometry": {
        "type": "LineString",
        "coordinates": [
          [
            -122.4192561,
            37.8020192
          ],
          [
            -122.4192696,
            37.8020062
          ],
          [
            -122.4192794,
            37.8019884
          ],
          [
            -122.4192857,
            37.8019707
          ],
          [
            -122.4192783,
            37.8019528
          ]
        ]
      }
    },
    {
      "type": "Feature",
      "properties": {
        "id": 966201482,
        "highway": "residential"
      },
      "geometry": {
        "type": "LineString",
        "coordinates": [
          [
            -122.4193355,
            37.8020878
          ],
          [
            -122.4193263,
            37.8020831
          ],
          [
            -122.4193185,
            37.8020784
          ],
          [
            -122.4193118,
            37.8020731
          ],
          [
            -122.4192561,
            37.8020192
          ],
          [
            -122.41925,
            37.8020142
          ],
          [
            -122.4192431,
            37.8020096
          ],
          [
            -122.4192355,
            37.8020058
          ],
          [
            -122.4192272,
            37.8020024
          ],
          [
            -122.4192182,
            37.8019997
          ],
          [
            -122.4192099,
            37.8019981
          ],
          [
            -122.4192009,
            37.8019972
          ],
          [
            -122.4191909,
            37.8019972
          ],
          [
            -122.4191816,
            37.8019989
          ],
          [
            -122.4191728,
            37.8020018
          ],
          [
            -122.4191647,
            37.8020053
          ],
          [
            -122.4191571,
            37.80201
          ],
          [
            -122.4191507,
            37.8020154
          ],
          [
            -122.4191454,
            37.8020214
          ],
          [
            -122.4191412,
            37.8020275
          ],
          [
            -122.4191378,
            37.8020342
          ],
          [
            -122.4191096,
            37.8020988
          ],
          [
            -122.4191063,
            37.8021053
          ],
          [
            -122.4191021,
            37.8021114
          ],
          [
            -122.4190971,
            37.8021171
          ],
          [
            -122.4190906,
            37.8021227
          ],
          [
            -122.4190833,
            37.8021275
          ],
          [
            -122.4190751,
            37.8021315
          ],
          [
            -122.4190664,
            37.8021343
          ],
          [
            -122.419056,
            37.8021363
          ],
          [
            -122.4190457,
            37.802137
          ],
          [
            -122.4190358,
            37.8021365
          ],
          [
            -122.4190306,
            37.8021359
          ],
          [
            -122.4190263,
            37.8021352
          ],
          [
            -122.4190166,
            37.8021325
          ],
          [
            -122.419008,
            37.8021292
          ],
          [
            -122.419006,
            37.8021282
          ],
          [
            -122.418998,
            37.8021244
          ],
          [
            -122.4189915,
            37.8021201
          ],
          [
            -122.418987,
            37.802117
          ],
          [
            -122.4189847,
            37.8021146
          ],
          [
            -122.4189284,
            37.8020608
          ],
          [
            -122.4189223,
            37.8020559
          ],
          [
            -122.4189149,
            37.8020513
          ],
          [
            -122.4189073,
            37.8020474
          ],
          [
            -122.418899,
            37.802044
          ],
          [
            -122.4188901,
            37.8020414
          ],
          [
            -122.4188817,
            37.8020397
          ],
          [
            -122.4188748,
            37.8020391
          ],
          [
            -122.4188718,
            37.8020387
          ],
          [
            -122.4188627,
            37.8020389
          ],
          [
            -122.4188535,
            37.8020405
          ],
          [
            -122.4188446,
            37.8020434
          ],
          [
            -122.4188365,
            37.802047
          ],
          [
            -122.418829,
            37.8020517
          ],
          [
            -122.4188226,
            37.8020571
          ],
          [
            -122.4188173,
            37.8020631
          ],
          [
            -122.4188128,
            37.8020693
          ],
          [
            -122.4188091,
            37.802076
          ],
          [
            -122.4187809,
            37.8021405
          ],
          [
            -122.4187775,
            37.8021471
          ],
          [
            -122.4187733,
            37.8021532
          ],
          [
            -122.4187683,
            37.8021588
          ],
          [
            -122.4187618,
            37.8021644
          ],
          [
            -122.4187545,
            37.8021692
          ],
          [
            -122.4187463,
            37.8021732
          ],
          [
            -122.4187376,
            37.802176
          ],
          [
            -122.4187274,
            37.802178
          ],
          [
            -122.4187169,
            37.8021787
          ],
          [
            -122.418707,
            37.8021782
          ],
          [
            -122.4187018,
            37.8021775
          ],
          [
            -122.4186976,
            37.8021769
          ],
          [
            -122.4186879,
            37.8021742
          ],
          [
            -122.4186793,
            37.8021709
          ],
          [
            -122.4186705,
            37.8021665
          ],
          [
            -122.4186629,
            37.8021618
          ],
          [
            -122.4186559,
            37.8021564
          ],
          [
            -122.418651,
            37.8021525
          ],
          [
            -122.4185996,
            37.8021026
          ],
          [
            -122.4185934,
            37.8020976
          ],
          [
            -122.4185861,
            37.8020929
          ],
          [
            -122.4185785,
            37.8020891
          ],
          [
            -122.4185702,
            37.8020857
          ],
          [
            -122.4185613,
            37.8020831
          ],
          [
            -122.418553,
            37.8020814
          ],
          [
            -122.418543,
            37.8020804
          ],
          [
            -122.4185339,
            37.8020807
          ],
          [
            -122.4185248,
            37.8020822
          ],
          [
            -122.4185159,
            37.8020851
          ],
          [
            -122.4185078,
            37.8020886
          ],
          [
            -122.4185003,
            37.8020933
          ],
          [
            -122.4184939,
            37.8020988
          ],
          [
            -122.4184886,
            37.8021047
          ],
          [
            -122.4184841,
            37.802111
          ],
          [
            -122.4184803,
            37.8021178
          ],
          [
            -122.4184716,
            37.802137
          ],
          [
            -122.4184521,
            37.8021823
          ],
          [
            -122.418449,
            37.8021888
          ],
          [
            -122.4184451,
            37.8021949
          ],
          [
            -122.4184402,
            37.8022005
          ],
          [
            -122.4184337,
            37.8022061
          ],
          [
            -122.4184264,
            37.8022109
          ],
          [
            -122.4184181,
            37.8022149
          ],
          [
            -122.4184094,
            37.8022177
          ],
          [
            -122.4183992,
            37.8022197
          ],
          [
            -122.4183888,
            37.8022204
          ],
          [
            -122.4183789,
            37.8022199
          ],
          [
            -122.4183694,
            37.8022186
          ],
          [
            -122.4183597,
            37.8022159
          ],
          [
            -122.4183511,
            37.8022126
          ],
          [
            -122.4183425,
            37.8022086
          ],
          [
            -122.4183347,
            37.8022033
          ],
          [
            -122.4183285,
            37.802198
          ],
          [
            -122.4182722,
            37.8021442
          ],
          [
            -122.4182662,
            37.8021392
          ],
          [
            -122.4182589,
            37.8021345
          ],
          [
            -122.4182513,
            37.8021307
          ],
          [
            -122.418243,
            37.8021273
          ],
          [
            -122.4182341,
            37.8021246
          ],
          [
            -122.4182258,
            37.802123
          ],
          [
            -122.4182158,
            37.802122
          ],
          [
            -122.4182067,
            37.8021222
          ],
          [
            -122.4181976,
            37.8021238
          ],
          [
            -122.4181887,
            37.8021267
          ],
          [
            -122.4181806,
            37.8021302
          ],
          [
            -122.4181731,
            37.8021349
          ],
          [
            -122.4181664,
            37.8021419
          ],
          [
            -122.4181304,
            37.8021921
          ],
          [
            -122.4181229,
            37.8021999
          ],
          [
            -122.4181136,
            37.8022062
          ],
          [
            -122.4181037,
            37.8022102
          ],
          [
            -122.4180923,
            37.802213
          ],
          [
            -122.4180781,
            37.8022146
          ],
          [
            -122.4180519,
            37.8022175
          ],
          [
            -122.4180225,
            37.8022187
          ],
          [
            -122.4179869,
            37.8022186
          ]
        ]
      }
    },
    {
      "type": "Feature",
      "properties": {
        "id": 1011562121,
        "highway": "service"
      },
      "geometry": {
        "type": "LineString",
        "coordinates": [
          [
            -122.4190393,
            37.8019358
          ],
          [
            -122.4190362,
            37.8020059
          ],
          [
            -122.4190306,
            37.8021359
          ]
        ]
      }
    },
    {
      "type": "Feature",
      "properties": {
        "id": 1011562122,
        "highway": "service"
      },
      "geometry": {
        "type": "LineString",
        "coordinates": [
          [
            -122.4186431,
            37.802078
          ],
          [
            -122.418651,
            37.8021525
          ]
        ]
      }
    },
    {
      "type": "Feature",
      "properties": {
        "id": 1011562123,
        "highway": "service"
      },
      "geometry": {
        "type": "LineString",
        "coordinates": [
          [
            -122.418566,
            37.802232
          ],
          [
            -122.4185607,
            37.8022137
          ],
          [
            -122.4185291,
            37.8021702
          ],
          [
            -122.4185155,
            37.8021565
          ],
          [
            -122.4184955,
            37.8021443
          ],
          [
            -122.4184716,
            37.802137
          ]
        ]
      }
    },
    {
      "type": "Feature",
      "properties": {
        "id": 1011562124,
        "highway": "service"
      },
      "geometry": {
        "type": "LineString",
        "coordinates": [
          [
            -122.4183672,
            37.8020659
          ],
          [
            -122.4183785,
            37.8020888
          ],
          [
            -122.4183734,
            37.8021638
          ],
          [
            -122.4183626,
            37.8021881
          ],
          [
            -122.4183425,
            37.8022086
          ]
        ]
      }
    },
    {
      "type": "Feature",
      "properties": {
        "id": 1011562125,
        "highway": "service"
      },
      "geometry": {
        "type": "LineString",
        "coordinates": [
          [
            -122.418998,
            37.8021244
          ],
          [
            -122.4189718,
            37.8020125
          ],
          [
            -122.4189664,
            37.8019895
          ]
        ]
      }
    },
    {
      "type": "Feature",
      "properties": {
        "id": 1011562126,
        "highway": "service"
      },
      "geometry": {
        "type": "LineString",
        "coordinates": [
          [
            -122.4188748,
            37.8020391
          ],
          [
            -122.4188758,
            37.8020201
          ],
          [
            -122.4188763,
            37.802009
          ]
        ]
      }
    },
    {
      "type": "Feature",
      "properties": {
        "id": 1011562127,
        "highway": "service"
      },
      "geometry": {
        "type": "LineString",
        "coordinates": [
          [
            -122.4187,
            37.8022259
          ],
          [
            -122.4187005,
            37.8022029
          ],
          [
            -122.4187018,
            37.8021775
          ]
        ]
      }
    },
    {
      "type": "Feature",
      "properties": {
        "id": 1011562143,
        "highway": "steps"
      },
      "geometry": {
        "type": "LineString",
        "coordinates": [
          [
            -122.4194902,
            37.8019413
          ],
          [
            -122.4193253,
            37.8019663
          ]
        ]
      }
    },
    {
      "type": "Feature",
      "properties": {
        "id": 1011562144,
        "highway": "footway"
      },
      "geometry": {
        "type": "LineString",
        "coordinates": [
          [
            -122.4192396,
            37.8019758
          ],
          [
            -122.4192857,
            37.8019707
          ],
          [
            -122.4193253,
            37.8019663
          ]
        ]
      }
    },
    {
      "type": "Feature",
      "properties": {
        "id": 1011562145,
        "highway": "steps"
      },
      "geometry": {
        "type": "LineString",
        "coordinates": [
          [
            -122.4192396,
            37.8019758
          ],
          [
            -122.4191839,
            37.801983
          ],
          [
            -122.4190659,
            37.8020043
          ]
        ]
      }
    },
    {
      "type": "Feature",
      "properties": {
        "id": 1011562146,
        "highway": "steps"
      },
      "geometry": {
        "type": "LineString",
        "coordinates": [
          [
            -122.4189851,
            37.8020113
          ],
          [
            -122.4189718,
            37.8020125
          ],
          [
            -122.4189601,
            37.8020137
          ]
        ]
      }
    },
    {
      "type": "Feature",
      "properties": {
        "id": 1011562147,
        "highway": "steps"
      },
      "geometry": {
        "type": "LineString",
        "coordinates": [
          [
            -122.4190659,
            37.8020043
          ],
          [
            -122.4190362,
            37.8020059
          ],
          [
            -122.4190124,
            37.8020072
          ]
        ]
      }
    },
    {
      "type": "Feature",
      "properties": {
        "id": 1011562148,
        "highway": "steps"
      },
      "geometry": {
        "type": "LineString",
        "coordinates": [
          [
            -122.4190124,
            37.8020072
          ],
          [
            -122.4189851,
            37.8020113
          ]
        ]
      }
    },
    {
      "type": "Feature",
      "properties": {
        "id": 1319131049,
        "highway": "footway"
      },
      "geometry": {
        "type": "LineString",
        "coordinates": [
          [
            -122.4180927,
            37.8022734
          ],
          [
            -122.4180781,
            37.8022146
          ],
          [
            -122.418057,
            37.8021291
          ]
        ]
      }
    },
    {
      "type": "Feature",
      "properties": {
        "id": 1319131050,
        "highway": "footway"
      },
      "geometry": {
        "type": "LineString",
        "coordinates": [
          [
            -122.418057,
            37.8021291
          ],
          [
            -122.4179715,
            37.8021426
          ],
          [
            -122.4178893,
            37.8021556
          ]
        ]
      }
    },
    {
      "type": "Feature",
      "properties": {
        "id": 1319131051,
        "highway": "footway"
      },
      "geometry": {
        "type": "LineString",
        "coordinates": [
          [
            -122.417918,
            37.8023032
          ],
          [
            -122.4180011,
            37.802289
          ],
          [
            -122.4180927,
            37.8022734
          ]
        ]
      }
    }
  ]
}