{
  "type": "FeatureCollection",
  "features": [
    {
      "type": "Feature",
      "properties": {
        "Layer": "Layer 04",
        "SubClasses": "AcDbEntity:AcDb2dPolyline",
        "EntityHandle": 187,
        "Vecindario": "San Antón",
        "Manzana": "SA01",
        "Modelo3D": "URL_0",
        "Perfil_A": "None",
        "Perfil_B": "None",
        "Perfil_C": "1YcC2oQtH5UoS4C-_lTquxhzSz9adocZx\n",
        "Perfil_D": "1oUfRc6WZeBL8HkexYnYQFqF6VMkjSGGv\n",
        "Seg_Perfil_A": "URL_1",
        "Seg_Perfil_B": "URL_2",
        "Seg_Perfil_C": "URL_3",
        "Seg_Perfil_D": "URL_4",
        "Hotspot_1": "34.71576156053151m 19.100185107366087m -0.6389702122213261m",
        "Hotspot_2": "34.71576156053151m 19.100185107366087m -0.6389702122213261m",
        "Hotspot_3": "34.71576156053151m 19.100185107366087m -0.6389702122213261m",
        "Hotspot_4": "34.71576156053151m 19.100185107366087m -0.6389702122213261m"
      },
      "geometry": {
        "type": "Polygon",
        "coordinates": [
          [
            [
              -69.8852507,
              18.4792287,
              0
            ],
            [
              -69.8857816,
              18.4786269,
              0
            ],
            [
              -69.8857228,
              18.4785786,
              0
            ],
            [
              -69.8856799,
              18.4785962,
              0
            ],
            [
              -69.8854887,
              18.478637,
              0
            ],
            [
              -69.8850571,
              18.4786706,
              0
            ],
            [
              -69.8850559,
              18.4791399,
              0
            ],
            [
              -69.8850824,
              18.4792284,
              0
            ],
            [
              -69.8851387,
              18.4792938,
              0
            ],
            [
              -69.8852507,
              18.4792287,
              0
            ]
          ]
        ]
      }
    },
    {
      "type": "Feature",
      "properties": {
        "Layer": "Layer 04",
        "SubClasses": "AcDbEntity:AcDb2dPolyline",
        "EntityHandle": 192,
        "Vecindario": "San Antón",
        "Manzana": "SA02",
        "Modelo3D": "URL_0",
        "Perfil_A": "1jxKmpmU5H-LAIv6dMVpocmuiPm3hOzbO\n",
        "Perfil_B": "1iIZ6awO0EIn2TUv0W5h176m0lYEoB6Mh\n",
        "Perfil_C": "1yCASoiKFvcuoPaxvU0t3XC3RT7WDMRXE\n",
        "Perfil_D": "106I4FgCy2z0j7mifdKszTeEiC-0EQ2mK\n",
        "Seg_Perfil_A": "URL_1",
        "Seg_Perfil_B": "URL_2",
        "Seg_Perfil_C": "URL_3",
        "Seg_Perfil_D": "URL_4",
        "Hotspot_1": "34.71576156053151m 19.100185107366087m -0.6389702122213261m",
        "Hotspot_2": "34.71576156053151m 19.100185107366087m -0.6389702122213261m",
        "Hotspot_3": "34.71576156053151m 19.100185107366087m -0.6389702122213261m",
        "Hotspot_4": "34.71576156053151m 19.100185107366087m -0.6389702122213261m"
      },
      "geometry": {
        "type": "Polygon",
        "coordinates": [
          [
            [
              -69.88504,
              18.4780941,
              0
            ],
            [
              -69.8850565,
              18.4786305,
              0
            ],
            [
              -69.8854829,
              18.4785974,
              0
            ],
            [
              -69.8856681,
              18.4785582,
              0
            ],
            [
              -69.8857185,
              18.478537,
              0
            ],
            [
              -69.8858096,
              18.4784998,
              0
            ],
            [
              -69.8859407,
              18.4783786,
              0
            ],
            [
              -69.8859795,
              18.4783246,
              0
            ],
            [
              -69.8859974,
              18.4782653,
              0
            ],
            [
              -69.8860081,
              18.4781019,
              0
            ],
            [
              -69.88504,
              18.4780941,
              0
            ]
          ]
        ]
      }
    },
    {
      "type": "Feature",
      "properties": {
        "Layer": "Layer 04",
        "SubClasses": "AcDbEntity:AcDb2dPolyline",
        "EntityHandle": "1EF",
        "Vecindario": "San Antón",
        "Manzana": "SA03",
        "Modelo3D": "URL_0",
        "Perfil_A": "19tHvM7R8asYID-bRAOVScAq6i3vUN1b4\n",
        "Perfil_B": "132S2lZQHN31oEUUb94hVaj5gQ-fvBf4I\n",
        "Perfil_C": "1piiZVg-65RTr8Ah7lgAk1OD43Mm92ojG\n",
        "Perfil_D": "None",
        "Seg_Perfil_A": "URL_1",
        "Seg_Perfil_B": "URL_2",
        "Seg_Perfil_C": "URL_3",
        "Seg_Perfil_D": "URL_4",
        "Hotspot_1": "34.71576156053151m 19.100185107366087m -0.6389702122213261m",
        "Hotspot_2": "34.71576156053151m 19.100185107366087m -0.6389702122213261m",
        "Hotspot_3": "34.71576156053151m 19.100185107366087m -0.6389702122213261m",
        "Hotspot_4": "34.71576156053151m 19.100185107366087m -0.6389702122213261m"
      },
      "geometry": {
        "type": "Polygon",
        "coordinates": [
          [
            [
              -69.8874691,
              18.4775848,
              0
            ],
            [
              -69.8872559,
              18.477197,
              0
            ],
            [
              -69.8864332,
              18.4779449,
              0
            ],
            [
              -69.8863806,
              18.478009,
              0
            ],
            [
              -69.8863077,
              18.4780586,
              0
            ],
            [
              -69.8861753,
              18.4780556,
              0
            ],
            [
              -69.886063,
              18.4780002,
              0
            ],
            [
              -69.8860493,
              18.4780844,
              0
            ],
            [
              -69.8860364,
              18.4782725,
              0
            ],
            [
              -69.8860202,
              18.4783265,
              0
            ],
            [
              -69.8863034,
              18.4785642,
              0
            ],
            [
              -69.8866382,
              18.4782935,
              0
            ],
            [
              -69.8874691,
              18.4775848,
              0
            ]
          ]
        ]
      }
    },
    {
      "type": "Feature",
      "properties": {
        "Layer": "Layer 04",
        "SubClasses": "AcDbEntity:AcDb2dPolyline",
        "EntityHandle": 204,
        "Vecindario": "San Antón",
        "Manzana": "SA04",
        "Modelo3D": "URL_0",
        "Perfil_A": "1tqhWuHpBeHXcdagJUv5hg36R4eVdrqQK\n",
        "Perfil_B": "None",
        "Perfil_C": "1KNGszgL1zGbaBzKUVE7ivR_P3xWCKETg\n1KNGszgL1zGbaBzKUVE7ivR_P3xWCKETg\n",
        "Perfil_D": "1qVjiV_M-fcY3HfSeQXmM0EOxxOPPTQli\n",
        "Seg_Perfil_A": "URL_1",
        "Seg_Perfil_B": "URL_2",
        "Seg_Perfil_C": "URL_3",
        "Seg_Perfil_D": "URL_4",
        "Hotspot_1": "34.71576156053151m 19.100185107366087m -0.6389702122213261m",
        "Hotspot_2": "34.71576156053151m 19.100185107366087m -0.6389702122213261m",
        "Hotspot_3": "34.71576156053151m 19.100185107366087m -0.6389702122213261m",
        "Hotspot_4": "34.71576156053151m 19.100185107366087m -0.6389702122213261m"
      },
      "geometry": {
        "type": "Polygon",
        "coordinates": [
          [
            [
              -69.8860283,
              18.4779719,
              0
            ],
            [
              -69.8858183,
              18.4773574,
              0
            ],
            [
              -69.8855674,
              18.4773754,
              0
            ],
            [
              -69.885223,
              18.4774011,
              0
            ],
            [
              -69.8850299,
              18.4774006,
              0
            ],
            [
              -69.8850409,
              18.4776358,
              0
            ],
            [
              -69.8850395,
              18.4780541,
              0
            ],
            [
              -69.8860127,
              18.478062,
              0
            ],
            [
              -69.8860283,
              18.4779719,
              0
            ]
          ]
        ]
      }
    },
    {
      "type": "Feature",
      "properties": {
        "Layer": "Layer 04",
        "SubClasses": "AcDbEntity:AcDb2dPolyline",
        "EntityHandle": 224,
        "Vecindario": "San Antón",
        "Manzana": "SA05",
        "Modelo3D": "URL_0",
        "Perfil_A": "None",
        "Perfil_B": "1vG2RYdDYkAkrBJpwkn5eDCyU2aCuIxfT\n",
        "Perfil_C": "1pNdt5BSLYXHrFtKghk3esPxYnZfHsbAr\n",
        "Perfil_D": "None",
        "Seg_Perfil_A": "URL_1",
        "Seg_Perfil_B": "URL_2",
        "Seg_Perfil_C": "URL_3",
        "Seg_Perfil_D": "URL_4",
        "Hotspot_1": "34.71576156053151m 19.100185107366087m -0.6389702122213261m",
        "Hotspot_2": "34.71576156053151m 19.100185107366087m -0.6389702122213261m",
        "Hotspot_3": "34.71576156053151m 19.100185107366087m -0.6389702122213261m",
        "Hotspot_4": "34.71576156053151m 19.100185107366087m -0.6389702122213261m"
      },
      "geometry": {
        "type": "Polygon",
        "coordinates": [
          [
            [
              -69.8860615,
              18.4779581,
              0
            ],
            [
              -69.8861849,
              18.4780178,
              0
            ],
            [
              -69.8862967,
              18.4780222,
              0
            ],
            [
              -69.8863536,
              18.47798,
              0
            ],
            [
              -69.8864015,
              18.4779283,
              0
            ],
            [
              -69.8861806,
              18.4773313,
              0
            ],
            [
              -69.8858594,
              18.4773544,
              0
            ],
            [
              -69.8860615,
              18.4779581,
              0
            ]
          ]
        ]
      }
    },
    {
      "type": "Feature",
      "properties": {
        "Layer": "Layer 04",
        "SubClasses": "AcDbEntity:AcDb2dPolyline",
        "EntityHandle": "1FD",
        "Vecindario": "San Antón",
        "Manzana": "SA06",
        "Modelo3D": "URL_0",
        "Perfil_A": "1E-Nee30EXbV_pYjGwH9vJuQgf_eFhiEs\n",
        "Perfil_B": "1fK8j__6rsnrit-EX4-86tYTVeVCxiu2S\n",
        "Perfil_C": "182JPFdIYhCiXUkLjmzMsysenKIKpJ-HO\n",
        "Perfil_D": "1RADUBko6GbLx9b7zYYuEgMB_dR-6vcYd\n",
        "Seg_Perfil_A": "URL_1",
        "Seg_Perfil_B": "URL_2",
        "Seg_Perfil_C": "URL_3",
        "Seg_Perfil_D": "URL_4",
        "Hotspot_1": "34.71576156053151m 19.100185107366087m -0.6389702122213261m",
        "Hotspot_2": "34.71576156053151m 19.100185107366087m -0.6389702122213261m",
        "Hotspot_3": "34.71576156053151m 19.100185107366087m -0.6389702122213261m",
        "Hotspot_4": "34.71576156053151m 19.100185107366087m -0.6389702122213261m"
      },
      "geometry": {
        "type": "Polygon",
        "coordinates": [
          [
            [
              -69.8871469,
              18.4769949,
              0
            ],
            [
              -69.8864037,
              18.4772753,
              0
            ],
            [
              -69.8862203,
              18.477324,
              0
            ],
            [
              -69.8864273,
              18.4778963,
              0
            ],
            [
              -69.8872362,
              18.4771608,
              0
            ],
            [
              -69.8871469,
              18.4769949,
              0
            ]
          ]
        ]
      }
    },
    {
      "type": "Feature",
      "properties": {
        "Layer": "Layer 04",
        "SubClasses": "AcDbEntity:AcDb2dPolyline",
        "EntityHandle": "1AD",
        "Vecindario": "San Antón",
        "Manzana": "SA07",
        "Modelo3D": "URL_0",
        "Perfil_A": "1emYiAeUmejdTsziYIVuBTGPNIwLrSpMv\n",
        "Perfil_B": "None",
        "Perfil_C": "1lnMvBBBhGn328ZTXGTsaYJvZibyHdMs7",
        "Perfil_D": "10YjR-XJ8q1Zr1eM9H_NMKGKpBNkDY7wO\n",
        "Seg_Perfil_A": "URL_1",
        "Seg_Perfil_B": "URL_2",
        "Seg_Perfil_C": "URL_3",
        "Seg_Perfil_D": "URL_4",
        "Hotspot_1": "34.71576156053151m 19.100185107366087m -0.6389702122213261m",
        "Hotspot_2": "34.71576156053151m 19.100185107366087m -0.6389702122213261m",
        "Hotspot_3": "34.71576156053151m 19.100185107366087m -0.6389702122213261m",
        "Hotspot_4": "34.71576156053151m 19.100185107366087m -0.6389702122213261m"
      },
      "geometry": {
        "type": "Polygon",
        "coordinates": [
          [
            [
              -69.8850265,
              18.4773606,
              0
            ],
            [
              -69.8852216,
              18.4773611,
              0
            ],
            [
              -69.8855395,
              18.4773374,
              0
            ],
            [
              -69.8854447,
              18.4770242,
              0
            ],
            [
              -69.8853862,
              18.4766923,
              0
            ],
            [
              -69.8849453,
              18.4766822,
              0
            ],
            [
              -69.88499,
              18.4770806,
              0
            ],
            [
              -69.8850265,
              18.4773606,
              0
            ]
          ]
        ]
      }
    },
    {
      "type": "Feature",
      "properties": {
        "Layer": "Layer 04",
        "SubClasses": "AcDbEntity:AcDb2dPolyline",
        "EntityHandle": "19E",
        "Vecindario": "San Antón",
        "Manzana": "SA08",
        "Modelo3D": "URL_0",
        "Perfil_A": "18A61TnNFasiRnuKvlxeksPOWjR_PMLmC\n",
        "Perfil_B": "1SiaS6pp_DJ3B1QqZeP7mfYtrWGxVFH0y\n",
        "Perfil_C": "1mlX-2O9IMUYnWnTaLTpr8-mCfGmE8VSD\n",
        "Perfil_D": "None",
        "Seg_Perfil_A": "URL_1",
        "Seg_Perfil_B": "URL_2",
        "Seg_Perfil_C": "URL_3",
        "Seg_Perfil_D": "URL_4",
        "Hotspot_1": "34.71576156053151m 19.100185107366087m -0.6389702122213261m",
        "Hotspot_2": "34.71576156053151m 19.100185107366087m -0.6389702122213261m",
        "Hotspot_3": "34.71576156053151m 19.100185107366087m -0.6389702122213261m",
        "Hotspot_4": "34.71576156053151m 19.100185107366087m -0.6389702122213261m"
      },
      "geometry": {
        "type": "Polygon",
        "coordinates": [
          [
            [
              -69.8863915,
              18.4772373,
              0
            ],
            [
              -69.8871301,
              18.4769585,
              0
            ],
            [
              -69.887035,
              18.4767183,
              0
            ],
            [
              -69.8869269,
              18.4764026,
              0
            ],
            [
              -69.8868009,
              18.4760494,
              0
            ],
            [
              -69.8856183,
              18.4763654,
              0
            ],
            [
              -69.8855604,
              18.4765866,
              0
            ],
            [
              -69.8855087,
              18.4766622,
              0
            ],
            [
              -69.8854258,
              18.4766868,
              0
            ],
            [
              -69.8854835,
              18.477015,
              0
            ],
            [
              -69.8855804,
              18.4773344,
              0
            ],
            [
              -69.8858308,
              18.4773164,
              0
            ],
            [
              -69.8861908,
              18.4772907,
              0
            ],
            [
              -69.8863915,
              18.4772373,
              0
            ]
          ]
        ]
      }
    },
    {
      "type": "Feature",
      "properties": {
        "Layer": "Layer 04",
        "SubClasses": "AcDbEntity:AcDb2dPolyline",
        "EntityHandle": 169,
        "Vecindario": "San Antón",
        "Manzana": "SA09",
        "Modelo3D": "URL_0",
        "Perfil_A": "11QUCWC78i89eik5-sN4ODs9zFZpO-7Kc\n",
        "Perfil_B": "1f4_88e8XCeoVyu1l5bMX3IZrdDOm4a_E\n",
        "Perfil_C": "1dTKf0gRqoBuP7Pk_jkqNzv6ZHMXnSgtn",
        "Perfil_D": "13TLzzEEJhd3BPniH3P0lrLDIPoTCe1Ut\n",
        "Seg_Perfil_A": "URL_1",
        "Seg_Perfil_B": "URL_2",
        "Seg_Perfil_C": "URL_3",
        "Seg_Perfil_D": "URL_4",
        "Hotspot_1": "34.71576156053151m 19.100185107366087m -0.6389702122213261m",
        "Hotspot_2": "34.71576156053151m 19.100185107366087m -0.6389702122213261m",
        "Hotspot_3": "34.71576156053151m 19.100185107366087m -0.6389702122213261m",
        "Hotspot_4": "34.71576156053151m 19.100185107366087m -0.6389702122213261m"
      },
      "geometry": {
        "type": "Polygon",
        "coordinates": [
          [
            [
              -69.8849405,
              18.4766421,
              0
            ],
            [
              -69.8854006,
              18.476653,
              0
            ],
            [
              -69.8854867,
              18.476632,
              0
            ],
            [
              -69.8855244,
              18.4765702,
              0
            ],
            [
              -69.885587,
              18.4763472,
              0
            ],
            [
              -69.8857774,
              18.4757615,
              0
            ],
            [
              -69.8857793,
              18.4756934,
              0
            ],
            [
              -69.8856925,
              18.47536,
              0
            ],
            [
              -69.8851473,
              18.4756779,
              0
            ],
            [
              -69.8850515,
              18.4756997,
              0
            ],
            [
              -69.8848139,
              18.4756867,
              0
            ],
            [
              -69.8849405,
              18.4766421,
              0
            ]
          ]
        ]
      }
    },
    {
      "type": "Feature",
      "properties": {
        "Layer": "Layer 04",
        "SubClasses": "AcDbEntity:AcDb2dPolyline",
        "EntityHandle": 161,
        "Vecindario": "San Antón",
        "Manzana": "SA10",
        "Modelo3D": "URL_0",
        "Perfil_A": "1O3AgCQTrcXmFT3Jowo1bdhuE18vhMT6f\n",
        "Perfil_B": "154M_08N9Rw99eIvBgMQljv8MAKl6PBXM\n",
        "Perfil_C": "1vQsES296V6oxrlaJJyZJapWHFdCh59yl\n",
        "Perfil_D": "1fm12yOe89e1EG5iP7GNcDS7dPjLsKdWY\n",
        "Seg_Perfil_A": "URL_1",
        "Seg_Perfil_B": "URL_2",
        "Seg_Perfil_C": "URL_3",
        "Seg_Perfil_D": "URL_4",
        "Hotspot_1": "34.71576156053151m 19.100185107366087m -0.6389702122213261m",
        "Hotspot_2": "34.71576156053151m 19.100185107366087m -0.6389702122213261m",
        "Hotspot_3": "34.71576156053151m 19.100185107366087m -0.6389702122213261m",
        "Hotspot_4": "34.71576156053151m 19.100185107366087m -0.6389702122213261m"
      },
      "geometry": {
        "type": "Polygon",
        "coordinates": [
          [
            [
              -69.8857285,
              18.4753397,
              0
            ],
            [
              -69.8858187,
              18.475689,
              0
            ],
            [
              -69.8858164,
              18.4757683,
              0
            ],
            [
              -69.8856365,
              18.476324,
              0
            ],
            [
              -69.8867885,
              18.4760114,
              0
            ],
            [
              -69.8864738,
              18.4749442,
              0
            ],
            [
              -69.8857285,
              18.4753397,
              0
            ]
          ]
        ]
      }
    },
    {
      "type": "Feature",
      "properties": {
        "Layer": "Layer 04",
        "SubClasses": "AcDbEntity:AcDb2dPolyline",
        "EntityHandle": 112,
        "Vecindario": "Santa Bárbara",
        "Manzana": "SB01",
        "Modelo3D": "https://cdn.glitch.me/cf57c429-6f82-4cc2-8387-d3f003bd320b/SB01.glb?v=1740475981433",
        "Perfil_A": "None",
        "Perfil_B": "1JzfdvJbeXwAu0GRYTHkm0m_1YX_44PgC",
        "Perfil_C": "1yGBVp6BT7v7252Ndo6ps0lzho0QtpQLR",
        "Perfil_D": "None",
        "Seg_Perfil_A": "None",
        "Seg_Perfil_B": "URL_2",
        "Seg_Perfil_C": "URL_3",
        "Seg_Perfil_D": "None",
        "Hotspot_1": "34.71576156053151m 19.100185107366087m -0.6389702122213261m",
        "Hotspot_2": "34.71576156053151m 19.100185107366087m -0.6389702122213261m",
        "Hotspot_3": "34.71576156053151m 19.100185107366087m -0.6389702122213261m",
        "Hotspot_4": "34.71576156053151m 19.100185107366087m -0.6389702122213261m"
      },
      "geometry": {
        "type": "Polygon",
        "coordinates": [
          [
            [
              -69.883408,
              18.480305,
              0
            ],
            [
              -69.8832368,
              18.4803181,
              0
            ],
            [
              -69.8832583,
              18.4803954,
              0
            ],
            [
              -69.88334,
              18.4807114,
              0
            ],
            [
              -69.8833543,
              18.4808959,
              0
            ],
            [
              -69.8833813,
              18.4811344,
              0
            ],
            [
              -69.8833798,
              18.4812201,
              0
            ],
            [
              -69.8838351,
              18.4811544,
              0
            ],
            [
              -69.8838206,
              18.4810461,
              0
            ],
            [
              -69.8839433,
              18.4802519,
              0
            ],
            [
              -69.8834882,
              18.4802917,
              0
            ],
            [
              -69.883408,
              18.480305,
              0
            ]
          ]
        ]
      }
    },
    {
      "type": "Feature",
      "properties": {
        "Layer": "Layer 04",
        "SubClasses": "AcDbEntity:AcDb2dPolyline",
        "EntityHandle": "11F",
        "Vecindario": "Santa Bárbara",
        "Manzana": "SB02",
        "Modelo3D": "https://cdn.glitch.me/cf57c429-6f82-4cc2-8387-d3f003bd320b/SB02.glb?v=1741127519302",
        "Perfil_A": "None",
        "Perfil_B": "16HiOU-xw41ny5uz2zAyXQvb5z5fzIKFw",
        "Perfil_C": "1XQKBkB9H9-QyyHXEkDpE30RT-F-eF-ac",
        "Perfil_D": "1Msx0uezkrfsEPZWfCdr692zJ-NsJHSaK",
        "Seg_Perfil_A": "None",
        "Seg_Perfil_B": "URL_2",
        "Seg_Perfil_C": "URL_3",
        "Seg_Perfil_D": "URL_4",
        "Hotspot_1": "34.71576156053151m 19.100185107366087m -0.6389702122213261m",
        "Hotspot_2": "34.71576156053151m 19.100185107366087m -0.6389702122213261m",
        "Hotspot_3": "34.71576156053151m 19.100185107366087m -0.6389702122213261m",
        "Hotspot_4": "41.633201386m 12.437981445m -1.395115753m -0.0009911569999999999m 0.0m -0.000132691m"
      },
      "geometry": {
        "type": "Polygon",
        "coordinates": [
          [
            [
              -69.8843578,
              18.4809757,
              0
            ],
            [
              -69.8844826,
              18.4807361,
              0
            ],
            [
              -69.8845989,
              18.4805617,
              0
            ],
            [
              -69.8847067,
              18.480417,
              0
            ],
            [
              -69.8843045,
              18.4802699,
              0
            ],
            [
              -69.8841904,
              18.4802427,
              0
            ],
            [
              -69.8839843,
              18.4802492,
              0
            ],
            [
              -69.8838612,
              18.4810465,
              0
            ],
            [
              -69.8838742,
              18.4811445,
              0
            ],
            [
              -69.8838773,
              18.4811483,
              0
            ],
            [
              -69.8843301,
              18.4810829,
              0
            ],
            [
              -69.8843578,
              18.4809757,
              0
            ]
          ]
        ]
      }
    },
    {
      "type": "Feature",
      "properties": {
        "Layer": "Layer 04",
        "SubClasses": "AcDbEntity:AcDb2dPolyline",
        "EntityHandle": "A3",
        "Vecindario": "Santa Bárbara",
        "Manzana": "SB03",
        "Modelo3D": "https://cdn.glitch.me/cf57c429-6f82-4cc2-8387-d3f003bd320b/SB03.glb?v=1741129919618",
        "Perfil_A": "1iIIyTxacv5m5NJQS0LF7fDJPMGP--EL9",
        "Perfil_B": "1IwAxanNmsdCqF0A3GhyZL1bMInyBjhkz",
        "Perfil_C": "None",
        "Perfil_D": "1Mjy7JUFQ7kfWyZ-NFufH9M10yV1FsouS",
        "Seg_Perfil_A": "URL_1",
        "Seg_Perfil_B": "URL_2",
        "Seg_Perfil_C": "None",
        "Seg_Perfil_D": "URL_4",
        "Hotspot_1": "34.71576156053151m 19.100185107366087m -0.6389702122213261m",
        "Hotspot_2": "34.71576156053151m 19.100185107366087m -0.6389702122213261m",
        "Hotspot_3": "34.71576156053151m 19.100185107366087m -0.6389702122213261m",
        "Hotspot_4": "34.71576156053151m 19.100185107366087m -0.6389702122213261m"
      },
      "geometry": {
        "type": "Polygon",
        "coordinates": [
          [
            [
              -69.8831946,
              18.4801604,
              0
            ],
            [
              -69.8831977,
              18.4801702,
              0
            ],
            [
              -69.8832015,
              18.4801798,
              0
            ],
            [
              -69.883206,
              18.4801891,
              0
            ],
            [
              -69.8832111,
              18.480198,
              0
            ],
            [
              -69.8832167,
              18.4802066,
              0
            ],
            [
              -69.883223,
              18.4802148,
              0
            ],
            [
              -69.8832298,
              18.4802225,
              0
            ],
            [
              -69.8832371,
              18.4802297,
              0
            ],
            [
              -69.8832449,
              18.4802365,
              0
            ],
            [
              -69.8832531,
              18.4802426,
              0
            ],
            [
              -69.8832617,
              18.4802482,
              0
            ],
            [
              -69.8832707,
              18.4802532,
              0
            ],
            [
              -69.88328,
              18.4802576,
              0
            ],
            [
              -69.8832896,
              18.4802613,
              0
            ],
            [
              -69.8832994,
              18.4802644,
              0
            ],
            [
              -69.8833095,
              18.4802667,
              0
            ],
            [
              -69.8833196,
              18.4802684,
              0
            ],
            [
              -69.8833298,
              18.4802694,
              0
            ],
            [
              -69.8833401,
              18.4802697,
              0
            ],
            [
              -69.8833504,
              18.4802692,
              0
            ],
            [
              -69.8834032,
              18.4802652,
              0
            ],
            [
              -69.8834832,
              18.4802519,
              0
            ],
            [
              -69.8839499,
              18.4802111,
              0
            ],
            [
              -69.8839857,
              18.4800049,
              0
            ],
            [
              -69.8835192,
              18.4799931,
              0
            ],
            [
              -69.8834411,
              18.480017,
              0
            ],
            [
              -69.8833712,
              18.4800321,
              0
            ],
            [
              -69.8833334,
              18.4799942,
              0
            ],
            [
              -69.8833306,
              18.4799884,
              0
            ],
            [
              -69.8831445,
              18.4799837,
              0
            ],
            [
              -69.8831697,
              18.4800722,
              0
            ],
            [
              -69.8831946,
              18.4801604,
              0
            ]
          ]
        ]
      }
    },
    {
      "type": "Feature",
      "properties": {
        "Layer": "Layer 04",
        "SubClasses": "AcDbEntity:AcDb2dPolyline",
        "EntityHandle": "F5",
        "Vecindario": "Santa Bárbara",
        "Manzana": "SB04",
        "Modelo3D": "URL_0",
        "Perfil_A": "None",
        "Perfil_B": "None",
        "Perfil_C": "None",
        "Perfil_D": "1Mjy7JUFQ7kfWyZ-NFufH9M10yV1FsouS",
        "Seg_Perfil_A": "URL_1",
        "Seg_Perfil_B": "URL_2",
        "Seg_Perfil_C": "URL_3",
        "Seg_Perfil_D": "URL_4",
        "Hotspot_1": "34.71576156053151m 19.100185107366087m -0.6389702122213261m",
        "Hotspot_2": "34.71576156053151m 19.100185107366087m -0.6389702122213261m",
        "Hotspot_3": "34.71576156053151m 19.100185107366087m -0.6389702122213261m",
        "Hotspot_4": "34.71576156053151m 19.100185107366087m -0.6389702122213261m"
      },
      "geometry": {
        "type": "Polygon",
        "coordinates": [
          [
            [
              -69.8845202,
              18.479341,
              0
            ],
            [
              -69.884519,
              18.4793487,
              0
            ],
            [
              -69.8844897,
              18.4793965,
              0
            ],
            [
              -69.8841647,
              18.4797015,
              0
            ],
            [
              -69.8840806,
              18.4798092,
              0
            ],
            [
              -69.8840392,
              18.4799412,
              0
            ],
            [
              -69.884029,
              18.4799892,
              0
            ],
            [
              -69.8839909,
              18.480209,
              0
            ],
            [
              -69.8841944,
              18.4802029,
              0
            ],
            [
              -69.8843161,
              18.4802316,
              0
            ],
            [
              -69.8847281,
              18.4803822,
              0
            ],
            [
              -69.8847695,
              18.4802869,
              0
            ],
            [
              -69.8847833,
              18.4802525,
              0
            ],
            [
              -69.8851123,
              18.4796537,
              0
            ],
            [
              -69.8852318,
              18.4794814,
              0
            ],
            [
              -69.8852033,
              18.4794314,
              0
            ],
            [
              -69.8851191,
              18.4793323,
              0
            ],
            [
              -69.8851032,
              18.4793132,
              0
            ],
            [
              -69.8845202,
              18.479341,
              0
            ]
          ]
        ]
      }
    },
    {
      "type": "Feature",
      "properties": {
        "Layer": "Layer 04",
        "SubClasses": "AcDbEntity:AcDb2dPolyline",
        "EntityHandle": 247,
        "Vecindario": "Santa Bárbara",
        "Manzana": "SB05",
        "Modelo3D": "URL_0",
        "Perfil_A": "1cSJc653yXTkIELuLfpHCjHiHOfeK54KW",
        "Perfil_B": "1VK7pN3FqygSE6nwaJIvcRTups3FTg6yZ",
        "Perfil_C": "None",
        "Perfil_D": "1G8Q8x930qZUtds-jJzLBVsFU9j4YvfxI",
        "Seg_Perfil_A": "URL_1",
        "Seg_Perfil_B": "URL_2",
        "Seg_Perfil_C": "URL_3",
        "Seg_Perfil_D": "URL_4",
        "Hotspot_1": "34.71576156053151m 19.100185107366087m -0.6389702122213261m",
        "Hotspot_2": "34.71576156053151m 19.100185107366087m -0.6389702122213261m",
        "Hotspot_3": "34.71576156053151m 19.100185107366087m -0.6389702122213261m",
        "Hotspot_4": "34.71576156053151m 19.100185107366087m -0.6389702122213261m"
      },
      "geometry": {
        "type": "Polygon",
        "coordinates": [
          [
            [
              -69.8833661,
              18.479971,
              0
            ],
            [
              -69.8833827,
              18.4799934,
              0
            ],
            [
              -69.883431,
              18.4799783,
              0
            ],
            [
              -69.8835041,
              18.4799603,
              0
            ],
            [
              -69.8836876,
              18.4794007,
              0
            ],
            [
              -69.8832731,
              18.4794214,
              0
            ],
            [
              -69.8832995,
              18.4797557,
              0
            ],
            [
              -69.8833487,
              18.4799344,
              0
            ],
            [
              -69.8833661,
              18.479971,
              0
            ]
          ]
        ]
      }
    },
    {
      "type": "Feature",
      "properties": {
        "Layer": "Layer 04",
        "SubClasses": "AcDbEntity:AcDb2dPolyline",
        "EntityHandle": "23D",
        "Vecindario": "Santa Bárbara",
        "Manzana": "SB06",
        "Modelo3D": "URL_0",
        "Perfil_A": "None",
        "Perfil_B": "1XqOToSq6CiUmmVl6M3UvbbLP0_qP8M3I",
        "Perfil_C": "1tnMF9sISEPW0nXwEZHFXon67kp7nnLOt",
        "Perfil_D": "1fmlch3mcLnxDHw8FDR7-6q4HVqLwwKTT",
        "Seg_Perfil_A": "URL_1",
        "Seg_Perfil_B": "URL_2",
        "Seg_Perfil_C": "URL_3",
        "Seg_Perfil_D": "URL_4",
        "Hotspot_1": "34.71576156053151m 19.100185107366087m -0.6389702122213261m",
        "Hotspot_2": "34.71576156053151m 19.100185107366087m -0.6389702122213261m",
        "Hotspot_3": "34.71576156053151m 19.100185107366087m -0.6389702122213261m",
        "Hotspot_4": "34.71576156053151m 19.100185107366087m -0.6389702122213261m"
      },
      "geometry": {
        "type": "Polygon",
        "coordinates": [
          [
            [
              -69.8844638,
              18.4793637,
              0
            ],
            [
              -69.8837303,
              18.4793986,
              0
            ],
            [
              -69.8835441,
              18.4799537,
              0
            ],
            [
              -69.8839933,
              18.479965,
              0
            ],
            [
              -69.8840006,
              18.479931,
              0
            ],
            [
              -69.8840458,
              18.4797908,
              0
            ],
            [
              -69.8841353,
              18.4796747,
              0
            ],
            [
              -69.8844591,
              18.4793713,
              0
            ],
            [
              -69.8844638,
              18.4793637,
              0
            ]
          ]
        ]
      }
    },
    {
      "type": "Feature",
      "properties": {
        "Layer": "Layer 04",
        "SubClasses": "AcDbEntity:AcDb2dPolyline",
        "EntityHandle": "C5",
        "Vecindario": "Santa Bárbara",
        "Manzana": "SB07",
        "Modelo3D": "URL_0",
        "Perfil_A": "1C0wn1sxKPExXZOQ5jP24R4Mbc7VxpuJ3",
        "Perfil_B": "1PdioGGzx4bZY-Kxc70s7mr7VQji9ejDD",
        "Perfil_C": "1ouyX4YRCc0LZsLHb6lHDQI7W1M342L3U",
        "Perfil_D": "1NT1ry-VG5akRuWyXCpSd5rRyOhzM3T-V",
        "Seg_Perfil_A": "URL_1",
        "Seg_Perfil_B": "URL_2",
        "Seg_Perfil_C": "URL_3",
        "Seg_Perfil_D": "URL_4",
        "Hotspot_1": "34.71576156053151m 19.100185107366087m -0.6389702122213261m",
        "Hotspot_2": "34.71576156053151m 19.100185107366087m -0.6389702122213261m",
        "Hotspot_3": "34.71576156053151m 19.100185107366087m -0.6389702122213261m",
        "Hotspot_4": "34.71576156053151m 19.100185107366087m -0.6389702122213261m"
      },
      "geometry": {
        "type": "Polygon",
        "coordinates": [
          [
            [
              -69.8831684,
              18.4789453,
              0
            ],
            [
              -69.8832673,
              18.4793816,
              0
            ],
            [
              -69.8837147,
              18.4793593,
              0
            ],
            [
              -69.8844836,
              18.4793227,
              0
            ],
            [
              -69.8844895,
              18.4792875,
              0
            ],
            [
              -69.8843915,
              18.4787922,
              0
            ],
            [
              -69.8831684,
              18.4789453,
              0
            ]
          ]
        ]
      }
    },
    {
      "type": "Feature",
      "properties": {
        "Layer": "Layer 04",
        "SubClasses": "AcDbEntity:AcDb2dPolyline",
        "EntityHandle": 109,
        "Vecindario": "Santa Bárbara",
        "Manzana": "SB08",
        "Modelo3D": "URL_0",
        "Perfil_A": "None",
        "Perfil_B": "1gHZKhdpM9dfx9chgbM-KjVfYocoZqI3s",
        "Perfil_C": "1b2mOhusXB--jf7rLkIdfPsoEQYYo85V6",
        "Perfil_D": "1V-qf17qOLbsQl9x1j7eGVVhg7b_s7mFa",
        "Seg_Perfil_A": "URL_1",
        "Seg_Perfil_B": "URL_2",
        "Seg_Perfil_C": "URL_3",
        "Seg_Perfil_D": "URL_4",
        "Hotspot_1": "34.71576156053151m 19.100185107366087m -0.6389702122213261m",
        "Hotspot_2": "34.71576156053151m 19.100185107366087m -0.6389702122213261m",
        "Hotspot_3": "34.71576156053151m 19.100185107366087m -0.6389702122213261m",
        "Hotspot_4": "34.71576156053151m 19.100185107366087m -0.6389702122213261m"
      },
      "geometry": {
        "type": "Polygon",
        "coordinates": [
          [
            [
              -69.8845202,
              18.479341,
              0
            ],
            [
              -69.8851032,
              18.4793132,
              0
            ],
            [
              -69.885048,
              18.4792472,
              0
            ],
            [
              -69.8850167,
              18.4791457,
              0
            ],
            [
              -69.8850172,
              18.4786762,
              0
            ],
            [
              -69.884431,
              18.4787859,
              0
            ],
            [
              -69.8845289,
              18.4792867,
              0
            ],
            [
              -69.8845202,
              18.479341,
              0
            ]
          ]
        ]
      }
    },
    {
      "type": "Feature",
      "properties": {
        "Layer": "Layer 04",
        "SubClasses": "AcDbEntity:AcDb2dPolyline",
        "EntityHandle": "12C",
        "Vecindario": "Santa Bárbara",
        "Manzana": "SB09",
        "Modelo3D": "URL_0",
        "Perfil_A": "1jPEw9Y-4_VsOTucFtcZgi7ShvBqBpdVU",
        "Perfil_B": "1bx07ztkKnAeJh4VObykjSNG2PWemlue8",
        "Perfil_C": "1d5RJBgy96GsrtMgoadGkRq8SY62EWhRM",
        "Perfil_D": "None",
        "Seg_Perfil_A": "URL_1",
        "Seg_Perfil_B": "URL_2",
        "Seg_Perfil_C": "URL_3",
        "Seg_Perfil_D": "URL_4",
        "Hotspot_1": "34.71576156053151m 19.100185107366087m -0.6389702122213261m",
        "Hotspot_2": "34.71576156053151m 19.100185107366087m -0.6389702122213261m",
        "Hotspot_3": "34.71576156053151m 19.100185107366087m -0.6389702122213261m",
        "Hotspot_4": "34.71576156053151m 19.100185107366087m -0.6389702122213261m"
      },
      "geometry": {
        "type": "Polygon",
        "coordinates": [
          [
            [
              -69.8843844,
              18.4787527,
              0
            ],
            [
              -69.8842867,
              18.4781405,
              0
            ],
            [
              -69.8837565,
              18.4781987,
              0
            ],
            [
              -69.8835276,
              18.4782192,
              0
            ],
            [
              -69.8834102,
              18.4782494,
              0
            ],
            [
              -69.8830547,
              18.4783449,
              0
            ],
            [
              -69.8831229,
              18.4787337,
              0
            ],
            [
              -69.8831613,
              18.4789058,
              0
            ],
            [
              -69.8843844,
              18.4787527,
              0
            ]
          ]
        ]
      }
    },
    {
      "type": "Feature",
      "properties": {
        "Layer": "Layer 04",
        "SubClasses": "AcDbEntity:AcDb2dPolyline",
        "EntityHandle": "22D",
        "Vecindario": "Santa Bárbara",
        "Manzana": "SB10",
        "Modelo3D": "URL_0",
        "Perfil_A": "19kP6Tc-8yP5K5yw3f4sLFB-Z8waRhnNA",
        "Perfil_B": "1nLLYqNXBrq575A8mKfl2gj_z2byDpkXu",
        "Perfil_C": "1WzAc0DTZZ11mWgxYGUDNvFvRFg5RUcwf",
        "Perfil_D": "1Y1s3HGjkYOyzcSlgWuIvWFQVj4fzMiWM",
        "Seg_Perfil_A": "URL_1",
        "Seg_Perfil_B": "URL_2",
        "Seg_Perfil_C": "URL_3",
        "Seg_Perfil_D": "URL_4",
        "Hotspot_1": "34.71576156053151m 19.100185107366087m -0.6389702122213261m",
        "Hotspot_2": "34.71576156053151m 19.100185107366087m -0.6389702122213261m",
        "Hotspot_3": "34.71576156053151m 19.100185107366087m -0.6389702122213261m",
        "Hotspot_4": "34.71576156053151m 19.100185107366087m -0.6389702122213261m"
      },
      "geometry": {
        "type": "Polygon",
        "coordinates": [
          [
            [
              -69.8850167,
              18.4786356,
              0
            ],
            [
              -69.885,
              18.4780949,
              0
            ],
            [
              -69.8846596,
              18.4781113,
              0
            ],
            [
              -69.8843267,
              18.4781368,
              0
            ],
            [
              -69.884424,
              18.4787466,
              0
            ],
            [
              -69.8850167,
              18.4786356,
              0
            ]
          ]
        ]
      }
    },
    {
      "type": "Feature",
      "properties": {
        "Layer": "Layer 04",
        "SubClasses": "AcDbEntity:AcDb2dPolyline",
        "EntityHandle": 60,
        "Vecindario": "Santa Bárbara",
        "Manzana": "SB11",
        "Modelo3D": "URL_0",
        "Perfil_A": "10_hHFn7RlEi3dikZONanX4vmXQtd8FVD",
        "Perfil_B": "1kJKn2ir0iIeX9Gae1V9G2Hx2XUgA8CVN",
        "Perfil_C": "1esPekUDadFamLPjnnklLjPo0CmJ4wFmU",
        "Perfil_D": "1n-HxK5p6v6sqqzqzC6lafb_EQ0VFW04b",
        "Seg_Perfil_A": "URL_1",
        "Seg_Perfil_B": "URL_2",
        "Seg_Perfil_C": "URL_3",
        "Seg_Perfil_D": "URL_4",
        "Hotspot_1": "34.71576156053151m 19.100185107366087m -0.6389702122213261m",
        "Hotspot_2": "34.71576156053151m 19.100185107366087m -0.6389702122213261m",
        "Hotspot_3": "34.71576156053151m 19.100185107366087m -0.6389702122213261m",
        "Hotspot_4": "34.71576156053151m 19.100185107366087m -0.6389702122213261m"
      },
      "geometry": {
        "type": "Polygon",
        "coordinates": [
          [
            [
              -69.8830468,
              18.4783056,
              0
            ],
            [
              -69.8835208,
              18.4781798,
              0
            ],
            [
              -69.8837525,
              18.4781588,
              0
            ],
            [
              -69.8842805,
              18.4781009,
              0
            ],
            [
              -69.8841678,
              18.4773845,
              0
            ],
            [
              -69.8841303,
              18.4773949,
              0
            ],
            [
              -69.8837874,
              18.4775466,
              0
            ],
            [
              -69.8837396,
              18.4775529,
              0
            ],
            [
              -69.8836911,
              18.4775347,
              0
            ],
            [
              -69.8835776,
              18.4773749,
              0
            ],
            [
              -69.882964,
              18.4779357,
              0
            ],
            [
              -69.8830468,
              18.4783056,
              0
            ]
          ]
        ]
      }
    },
    {
      "type": "Feature",
      "properties": {
        "Layer": "Layer 04",
        "SubClasses": "AcDbEntity:AcDb2dPolyline",
        "EntityHandle": 234,
        "Vecindario": "Santa Bárbara",
        "Manzana": "SB12",
        "Modelo3D": "URL_0",
        "Perfil_A": "1xff7BWXensXDXHeRNmWaajY4X4ORoEGP",
        "Perfil_B": "1itYfBZqvQ36QmpEkC2qVVlcogOl58td5",
        "Perfil_C": "1Dx3uz4FkMkmIf3Iu2KQtIbhm5nkp-j5t",
        "Perfil_D": "14GAqo1kWoayGXANbHJj7Ixr94NJGvzNf",
        "Seg_Perfil_A": "URL_1",
        "Seg_Perfil_B": "URL_2",
        "Seg_Perfil_C": "URL_3",
        "Seg_Perfil_D": "URL_4",
        "Hotspot_1": "34.71576156053151m 19.100185107366087m -0.6389702122213261m",
        "Hotspot_2": "34.71576156053151m 19.100185107366087m -0.6389702122213261m",
        "Hotspot_3": "34.71576156053151m 19.100185107366087m -0.6389702122213261m",
        "Hotspot_4": "34.71576156053151m 19.100185107366087m -0.6389702122213261m"
      },
      "geometry": {
        "type": "Polygon",
        "coordinates": [
          [
            [
              -69.8849898,
              18.4773999,
              0
            ],
            [
              -69.8842759,
              18.4773749,
              0
            ],
            [
              -69.8842073,
              18.4773782,
              0
            ],
            [
              -69.8843204,
              18.4780971,
              0
            ],
            [
              -69.8846572,
              18.4780713,
              0
            ],
            [
              -69.8849995,
              18.4780548,
              0
            ],
            [
              -69.8850009,
              18.4776366,
              0
            ],
            [
              -69.8849898,
              18.4773999,
              0
            ]
          ]
        ]
      }
    },
    {
      "type": "Feature",
      "properties": {
        "Layer": "Layer 04",
        "SubClasses": "AcDbEntity:AcDb2dPolyline",
        "EntityHandle": "17F",
        "Vecindario": "Santa Bárbara",
        "Manzana": "SB13",
        "Modelo3D": "URL_0",
        "Perfil_A": "1qhyZzgQ8jugo6x0s9klX-sGgr-uFxI01",
        "Perfil_B": "1vm4kZwTkfdSBj0zYL3Q6pL0jqyYUIVEg",
        "Perfil_C": "1YdBskeWzyySZHhAhzONW1QCnlKMEz2Jb",
        "Perfil_D": "10OBXL05gbJaNimmlvjmLhGbw12qFXOna",
        "Seg_Perfil_A": "URL_1",
        "Seg_Perfil_B": "URL_2",
        "Seg_Perfil_C": "URL_3",
        "Seg_Perfil_D": "URL_4",
        "Hotspot_1": "34.71576156053151m 19.100185107366087m -0.6389702122213261m",
        "Hotspot_2": "34.71576156053151m 19.100185107366087m -0.6389702122213261m",
        "Hotspot_3": "34.71576156053151m 19.100185107366087m -0.6389702122213261m",
        "Hotspot_4": "34.71576156053151m 19.100185107366087m -0.6389702122213261m"
      },
      "geometry": {
        "type": "Polygon",
        "coordinates": [
          [
            [
              -69.884986,
              18.4773598,
              0
            ],
            [
              -69.8849502,
              18.4770854,
              0
            ],
            [
              -69.8849051,
              18.4766828,
              0
            ],
            [
              -69.8840935,
              18.4767313,
              0
            ],
            [
              -69.8842007,
              18.4773385,
              0
            ],
            [
              -69.8842757,
              18.4773349,
              0
            ],
            [
              -69.884986,
              18.4773598,
              0
            ]
          ]
        ]
      }
    },
    {
      "type": "Feature",
      "properties": {
        "Layer": "Layer 04",
        "SubClasses": "AcDbEntity:AcDb2dPolyline",
        "EntityHandle": 176,
        "Vecindario": "Santa Bárbara",
        "Manzana": "SB14",
        "Modelo3D": "URL_0",
        "Perfil_A": "19SvX1GS5WpTy_X0JpkMfCH3nfPANMoz1",
        "Perfil_B": "1tpIomSTpa-bUkx42cHUGlTZlljBd9p7L",
        "Perfil_C": "1Rd9QrH3UrA3g1pqaiE3_1pohO4IPTY3R",
        "Perfil_D": "1YcC2oQtH5UoS4C-_lTquxhzSz9adocZx",
        "Seg_Perfil_A": "URL_1",
        "Seg_Perfil_B": "URL_2",
        "Seg_Perfil_C": "URL_3",
        "Seg_Perfil_D": "URL_4",
        "Hotspot_1": "34.71576156053151m 19.100185107366087m -0.6389702122213261m",
        "Hotspot_2": "34.71576156053151m 19.100185107366087m -0.6389702122213261m",
        "Hotspot_3": "34.71576156053151m 19.100185107366087m -0.6389702122213261m",
        "Hotspot_4": "34.71576156053151m 19.100185107366087m -0.6389702122213261m"
      },
      "geometry": {
        "type": "Polygon",
        "coordinates": [
          [
            [
              -69.8849003,
              18.476643,
              0
            ],
            [
              -69.8847732,
              18.4756837,
              0
            ],
            [
              -69.8839379,
              18.475601,
              0
            ],
            [
              -69.8839928,
              18.4760741,
              0
            ],
            [
              -69.8840045,
              18.4761551,
              0
            ],
            [
              -69.8840858,
              18.4766752,
              0
            ],
            [
              -69.8840877,
              18.4766916,
              0
            ],
            [
              -69.8849003,
              18.476643,
              0
            ]
          ]
        ]
      }
    },
    {
      "type": "Feature",
      "properties": {
        "Layer": "Layer 04",
        "SubClasses": "AcDbEntity:AcDb2dPolyline",
        "EntityHandle": "1BD",
        "Vecindario": "San Lázaro",
        "Manzana": "SL01",
        "Modelo3D": "URL_0",
        "Perfil_A": "1axeoa1ssvV1soTx53HkehWk-m5RbWxm5\n",
        "Perfil_B": "1Lrh1A-x56wsVz52iep8XDOttJkQ-GIUF\n",
        "Perfil_C": "1UsGBdIN74JxrW803M-NF5J5L5xijDhkI\n",
        "Perfil_D": "1xzrAJjvqSR0A-Hx5JOklKwfilZDMk7wd\n",
        "Seg_Perfil_A": "URL_1",
        "Seg_Perfil_B": "URL_2",
        "Seg_Perfil_C": "URL_3",
        "Seg_Perfil_D": "URL_4",
        "Hotspot_1": "34.71576156053151m 19.100185107366087m -0.6389702122213261m",
        "Hotspot_2": "34.71576156053151m 19.100185107366087m -0.6389702122213261m",
        "Hotspot_3": "34.71576156053151m 19.100185107366087m -0.6389702122213261m",
        "Hotspot_4": "34.71576156053151m 19.100185107366087m -0.6389702122213261m"
      },
      "geometry": {
        "type": "Polygon",
        "coordinates": [
          [
            [
              -69.8885888,
              18.4759234,
              0
            ],
            [
              -69.8887912,
              18.4764999,
              0
            ],
            [
              -69.8891355,
              18.4762285,
              0
            ],
            [
              -69.8899008,
              18.4755932,
              0
            ],
            [
              -69.8902274,
              18.4753416,
              0
            ],
            [
              -69.8904056,
              18.4751541,
              0
            ],
            [
              -69.8907813,
              18.474615,
              0
            ],
            [
              -69.8903161,
              18.4743279,
              0
            ],
            [
              -69.8893279,
              18.4752061,
              0
            ],
            [
              -69.8889463,
              18.4755765,
              0
            ],
            [
              -69.8885888,
              18.4759234,
              0
            ]
          ]
        ]
      }
    },
    {
      "type": "Feature",
      "properties": {
        "Layer": "Layer 04",
        "SubClasses": "AcDbEntity:AcDb2dPolyline",
        "EntityHandle": "1C9",
        "Vecindario": "San Lázaro",
        "Manzana": "SL02",
        "Modelo3D": "URL_0",
        "Perfil_A": "1p4tLXey5hDnz5MoZxCiqmisbwX1vUyIk\n",
        "Perfil_B": "1ITrN0xgTrwg6of0LLSEEzul9wBCsf06V\n",
        "Perfil_C": "1vFD6BSWVCiz5zormLJJqmJb_2y7PR0QH\n",
        "Perfil_D": "1oKfkUp_RqycThpwGhIn3H2GossngNOjq\n",
        "Seg_Perfil_A": "URL_1",
        "Seg_Perfil_B": "URL_2",
        "Seg_Perfil_C": "URL_3",
        "Seg_Perfil_D": "URL_4",
        "Hotspot_1": "34.71576156053151m 19.100185107366087m -0.6389702122213261m",
        "Hotspot_2": "34.71576156053151m 19.100185107366087m -0.6389702122213261m",
        "Hotspot_3": "34.71576156053151m 19.100185107366087m -0.6389702122213261m",
        "Hotspot_4": "34.71576156053151m 19.100185107366087m -0.6389702122213261m"
      },
      "geometry": {
        "type": "Polygon",
        "coordinates": [
          [
            [
              -69.8916325,
              18.4726184,
              0
            ],
            [
              -69.8912854,
              18.4731242,
              0
            ],
            [
              -69.8907166,
              18.4738597,
              0
            ],
            [
              -69.890448,
              18.4741654,
              0
            ],
            [
              -69.8903435,
              18.4742979,
              0
            ],
            [
              -69.8908036,
              18.4745818,
              0
            ],
            [
              -69.8910386,
              18.4742171,
              0
            ],
            [
              -69.8911968,
              18.4739923,
              0
            ],
            [
              -69.891574,
              18.4734195,
              0
            ],
            [
              -69.8917979,
              18.4730898,
              0
            ],
            [
              -69.8918291,
              18.4730251,
              0
            ],
            [
              -69.8917652,
              18.4728533,
              0
            ],
            [
              -69.8916905,
              18.4727431,
              0
            ],
            [
              -69.8916325,
              18.4726184,
              0
            ]
          ]
        ]
      }
    },
    {
      "type": "Feature",
      "properties": {
        "Layer": "Layer 04",
        "SubClasses": "AcDbEntity:AcDb2dPolyline",
        "EntityHandle": 81,
        "Vecindario": "San Lázaro",
        "Manzana": "SL03",
        "Modelo3D": "URL_0",
        "Perfil_A": "1TTfETbT100OZkvH5DPJD2ZEj_naV5VPO\n",
        "Perfil_B": "None",
        "Perfil_C": "1c2BVINX-EPHHJmQw-960t7HcCQHeRuR5\n",
        "Perfil_D": "1GqevCGHTEpY3oAKSK18vH06OGtXG-u40\n",
        "Seg_Perfil_A": "URL_1",
        "Seg_Perfil_B": "URL_2",
        "Seg_Perfil_C": "URL_3",
        "Seg_Perfil_D": "URL_4",
        "Hotspot_1": "34.71576156053151m 19.100185107366087m -0.6389702122213261m",
        "Hotspot_2": "34.71576156053151m 19.100185107366087m -0.6389702122213261m",
        "Hotspot_3": "34.71576156053151m 19.100185107366087m -0.6389702122213261m",
        "Hotspot_4": "34.71576156053151m 19.100185107366087m -0.6389702122213261m"
      },
      "geometry": {
        "type": "Polygon",
        "coordinates": [
          [
            [
              -69.8886464,
              18.4745306,
              0
            ],
            [
              -69.8885057,
              18.4745957,
              0
            ],
            [
              -69.8881824,
              18.4747248,
              0
            ],
            [
              -69.8883027,
              18.4750995,
              0
            ],
            [
              -69.8884666,
              18.4755633,
              0
            ],
            [
              -69.8885542,
              18.4758223,
              0
            ],
            [
              -69.8885744,
              18.4758816,
              0
            ],
            [
              -69.8889184,
              18.4755477,
              0
            ],
            [
              -69.8892822,
              18.4751947,
              0
            ],
            [
              -69.8890398,
              18.4750008,
              0
            ],
            [
              -69.8890331,
              18.474997,
              0
            ],
            [
              -69.8887824,
              18.4752337,
              0
            ],
            [
              -69.8887482,
              18.4752447,
              0
            ],
            [
              -69.888713,
              18.4752281,
              0
            ],
            [
              -69.8886358,
              18.4749687,
              0
            ],
            [
              -69.8886693,
              18.4749312,
              0
            ],
            [
              -69.888813,
              18.4748645,
              0
            ],
            [
              -69.8886464,
              18.4745306,
              0
            ]
          ]
        ]
      }
    },
    {
      "type": "Feature",
      "properties": {
        "Layer": "Layer 04",
        "SubClasses": "AcDbEntity:AcDb2dPolyline",
        "EntityHandle": "DA",
        "Vecindario": "San Lázaro",
        "Manzana": "SL04",
        "Modelo3D": "URL_0",
        "Perfil_A": "None",
        "Perfil_B": "None",
        "Perfil_C": "None",
        "Perfil_D": "None",
        "Seg_Perfil_A": "URL_1",
        "Seg_Perfil_B": "URL_2",
        "Seg_Perfil_C": "URL_3",
        "Seg_Perfil_D": "URL_4",
        "Hotspot_1": "34.71576156053151m 19.100185107366087m -0.6389702122213261m",
        "Hotspot_2": "34.71576156053151m 19.100185107366087m -0.6389702122213261m",
        "Hotspot_3": "34.71576156053151m 19.100185107366087m -0.6389702122213261m",
        "Hotspot_4": "34.71576156053151m 19.100185107366087m -0.6389702122213261m"
      },
      "geometry": {
        "type": "Polygon",
        "coordinates": [
          [
            [
              -69.888751,
              18.4752017,
              0
            ],
            [
              -69.8887614,
              18.4751983,
              0
            ],
            [
              -69.8889985,
              18.4749745,
              0
            ],
            [
              -69.8889113,
              18.4749309,
              0
            ],
            [
              -69.8888401,
              18.4748962,
              0
            ],
            [
              -69.8886937,
              18.474964,
              0
            ],
            [
              -69.8886806,
              18.4749787,
              0
            ],
            [
              -69.8887464,
              18.4751995,
              0
            ],
            [
              -69.888751,
              18.4752017,
              0
            ]
          ]
        ]
      }
    },
    {
      "type": "Feature",
      "properties": {
        "Layer": "Layer 04",
        "SubClasses": "AcDbEntity:AcDb2dPolyline",
        "EntityHandle": 94,
        "Vecindario": "San Lázaro",
        "Manzana": "SL05",
        "Modelo3D": "URL_0",
        "Perfil_A": "None",
        "Perfil_B": "None",
        "Perfil_C": "1d7n7_YZpaH5kFVE-tW59JKlTZIpAMID8\n",
        "Perfil_D": "None",
        "Seg_Perfil_A": "URL_1",
        "Seg_Perfil_B": "URL_2",
        "Seg_Perfil_C": "URL_3",
        "Seg_Perfil_D": "URL_4",
        "Hotspot_1": "34.71576156053151m 19.100185107366087m -0.6389702122213261m",
        "Hotspot_2": "34.71576156053151m 19.100185107366087m -0.6389702122213261m",
        "Hotspot_3": "34.71576156053151m 19.100185107366087m -0.6389702122213261m",
        "Hotspot_4": "34.71576156053151m 19.100185107366087m -0.6389702122213261m"
      },
      "geometry": {
        "type": "Polygon",
        "coordinates": [
          [
            [
              -69.8888489,
              18.4748467,
              0
            ],
            [
              -69.888855,
              18.4748589,
              0
            ],
            [
              -69.8888673,
              18.4748648,
              0
            ],
            [
              -69.8889291,
              18.4748949,
              0
            ],
            [
              -69.8889856,
              18.4749232,
              0
            ],
            [
              -69.8890625,
              18.4749676,
              0
            ],
            [
              -69.8893117,
              18.4751669,
              0
            ],
            [
              -69.8902865,
              18.4743006,
              0
            ],
            [
              -69.8902194,
              18.4742149,
              0
            ],
            [
              -69.8900598,
              18.4738801,
              0
            ],
            [
              -69.8893053,
              18.4742257,
              0
            ],
            [
              -69.8886828,
              18.4745138,
              0
            ],
            [
              -69.8886834,
              18.4745148,
              0
            ],
            [
              -69.8888489,
              18.4748467,
              0
            ]
          ]
        ]
      }
    },
    {
      "type": "Feature",
      "properties": {
        "Layer": "Layer 04",
        "SubClasses": "AcDbEntity:AcDb2dPolyline",
        "EntityHandle": 136,
        "Vecindario": "San Lázaro",
        "Manzana": "SL06",
        "Modelo3D": "URL_0",
        "Perfil_A": "145L_IGSDnIvibLfiLqJP61fCjbVWCdvz\n",
        "Perfil_B": "1zQ-0fzyje4Rhb33S3wmw0PG2zVKNyRUS\n",
        "Perfil_C": "1CyBCBhwS6arkQLmC2dWpZidn61ZZs_D8\n",
        "Perfil_D": "1l4ccaYoiKD8Cjp7M2Y7yooQIdRFXvU96\n",
        "Seg_Perfil_A": "URL_1",
        "Seg_Perfil_B": "URL_2",
        "Seg_Perfil_C": "URL_3",
        "Seg_Perfil_D": "URL_4",
        "Hotspot_1": "34.71576156053151m 19.100185107366087m -0.6389702122213261m",
        "Hotspot_2": "34.71576156053151m 19.100185107366087m -0.6389702122213261m",
        "Hotspot_3": "34.71576156053151m 19.100185107366087m -0.6389702122213261m",
        "Hotspot_4": "34.71576156053151m 19.100185107366087m -0.6389702122213261m"
      },
      "geometry": {
        "type": "Polygon",
        "coordinates": [
          [
            [
              -69.8900879,
              18.4738461,
              0
            ],
            [
              -69.8902534,
              18.4741938,
              0
            ],
            [
              -69.8903139,
              18.4742708,
              0
            ],
            [
              -69.8904172,
              18.4741398,
              0
            ],
            [
              -69.8906858,
              18.4738343,
              0
            ],
            [
              -69.8912455,
              18.4731104,
              0
            ],
            [
              -69.8909167,
              18.4724967,
              0
            ],
            [
              -69.8904871,
              18.4727729,
              0
            ],
            [
              -69.8904433,
              18.4728002,
              0
            ],
            [
              -69.8898741,
              18.4731289,
              0
            ],
            [
              -69.8898434,
              18.4731485,
              0
            ],
            [
              -69.8898903,
              18.4732683,
              0
            ],
            [
              -69.8900879,
              18.4738461,
              0
            ]
          ]
        ]
      }
    },
    {
      "type": "Feature",
      "properties": {
        "Layer": "Layer 04",
        "SubClasses": "AcDbEntity:AcDb2dPolyline",
        "EntityHandle": 150,
        "Vecindario": "San Lázaro",
        "Manzana": "SL07",
        "Modelo3D": "URL_0",
        "Perfil_A": "1Orw_C8nl69ScQTq_IMc6IhDh4LTIZpGD\n",
        "Perfil_B": "1W8u9ToIUe_D8VMBOqq54LHB1YUhMHtas",
        "Perfil_C": "1cJi9JtqbSUKPXBR7JgT9g0LpRL8YXxTG\n",
        "Perfil_D": "10drrNbpC9bKos0UK3aRNkoaqUIUDaLbF",
        "Seg_Perfil_A": "URL_1",
        "Seg_Perfil_B": "URL_2",
        "Seg_Perfil_C": "URL_3",
        "Seg_Perfil_D": "URL_4",
        "Hotspot_1": "34.71576156053151m 19.100185107366087m -0.6389702122213261m",
        "Hotspot_2": "34.71576156053151m 19.100185107366087m -0.6389702122213261m",
        "Hotspot_3": "34.71576156053151m 19.100185107366087m -0.6389702122213261m",
        "Hotspot_4": "34.71576156053151m 19.100185107366087m -0.6389702122213261m"
      },
      "geometry": {
        "type": "Polygon",
        "coordinates": [
          [
            [
              -69.891618,
              18.4725756,
              0
            ],
            [
              -69.891475,
              18.4721379,
              0
            ],
            [
              -69.8913986,
              18.472178,
              0
            ],
            [
              -69.8912648,
              18.4722494,
              0
            ],
            [
              -69.89095,
              18.4724743,
              0
            ],
            [
              -69.8912714,
              18.4730742,
              0
            ],
            [
              -69.891618,
              18.4725756,
              0
            ]
          ]
        ]
      }
    },
    {
      "type": "Feature",
      "properties": {
        "Layer": "Layer 04",
        "SubClasses": "AcDbEntity:AcDb2dPolyline",
        "EntityHandle": 144,
        "Vecindario": "San Lázaro",
        "Manzana": "SL08",
        "Modelo3D": "URL_0",
        "Perfil_A": "11IDRQqtODJ4_9w5AIM-t-JP92xfo4Jh4\n",
        "Perfil_B": "1BMfWsCvkpxFr5H2MCBWvEANFOjjljb9l\n",
        "Perfil_C": "1XQHBrHiXzag65kbbly7ED3AolWU_HEPz\n",
        "Perfil_D": "1IXiBKHkYApt42UncdnWQJOz5_eXUKwHE\n",
        "Seg_Perfil_A": "URL_1",
        "Seg_Perfil_B": "URL_2",
        "Seg_Perfil_C": "URL_3",
        "Seg_Perfil_D": "URL_4",
        "Hotspot_1": "34.71576156053151m 19.100185107366087m -0.6389702122213261m",
        "Hotspot_2": "34.71576156053151m 19.100185107366087m -0.6389702122213261m",
        "Hotspot_3": "34.71576156053151m 19.100185107366087m -0.6389702122213261m",
        "Hotspot_4": "34.71576156053151m 19.100185107366087m -0.6389702122213261m"
      },
      "geometry": {
        "type": "Polygon",
        "coordinates": [
          [
            [
              -69.8891008,
              18.4735892,
              0
            ],
            [
              -69.8888339,
              18.473709,
              0
            ],
            [
              -69.8880096,
              18.4740611,
              0
            ],
            [
              -69.8881713,
              18.4746861,
              0
            ],
            [
              -69.8884899,
              18.4745589,
              0
            ],
            [
              -69.8892885,
              18.4741893,
              0
            ],
            [
              -69.8900446,
              18.473843,
              0
            ],
            [
              -69.8898527,
              18.4732821,
              0
            ],
            [
              -69.8898092,
              18.4731708,
              0
            ],
            [
              -69.8895874,
              18.4733172,
              0
            ],
            [
              -69.8891008,
              18.4735892,
              0
            ]
          ]
        ]
      }
    },
    {
      "type": "Feature",
      "properties": {
        "Layer": "Layer 04",
        "SubClasses": "AcDbEntity:AcDb2dPolyline",
        "EntityHandle": "1E4",
        "Vecindario": "San Miguel",
        "Manzana": "SM01",
        "Modelo3D": "URL_0",
        "Perfil_A": "1Mt0sErLWLTymXVk4IXbk7aZ8V2pYZN2E\n",
        "Perfil_B": "1CLXO3kx-T4YkoqPSwAWgT6CEn4jiGEHq\n",
        "Perfil_C": "None",
        "Perfil_D": "1JiD4W8MPCCStbPu7j8mEyYjr05qUYqoV\n",
        "Seg_Perfil_A": "URL_1",
        "Seg_Perfil_B": "URL_2",
        "Seg_Perfil_C": "URL_3",
        "Seg_Perfil_D": "URL_4",
        "Hotspot_1": "34.71576156053151m 19.100185107366087m -0.6389702122213261m",
        "Hotspot_2": "34.71576156053151m 19.100185107366087m -0.6389702122213261m",
        "Hotspot_3": "34.71576156053151m 19.100185107366087m -0.6389702122213261m",
        "Hotspot_4": "34.71576156053151m 19.100185107366087m -0.6389702122213261m"
      },
      "geometry": {
        "type": "Polygon",
        "coordinates": [
          [
            [
              -69.8879611,
              18.476514,
              0
            ],
            [
              -69.8877397,
              18.4766966,
              0
            ],
            [
              -69.8875933,
              18.4767897,
              0
            ],
            [
              -69.8874425,
              18.476868,
              0
            ],
            [
              -69.8871841,
              18.4769797,
              0
            ],
            [
              -69.8872788,
              18.4771555,
              0
            ],
            [
              -69.8875,
              18.4775578,
              0
            ],
            [
              -69.8879374,
              18.4771693,
              0
            ],
            [
              -69.8883057,
              18.476902,
              0
            ],
            [
              -69.8879611,
              18.476514,
              0
            ]
          ]
        ]
      }
    },
    {
      "type": "Feature",
      "properties": {
        "Layer": "Layer 04",
        "SubClasses": "AcDbEntity:AcDb2dPolyline",
        "EntityHandle": "1D8",
        "Vecindario": "San Miguel",
        "Manzana": "SM02",
        "Modelo3D": "URL_0",
        "Perfil_A": "1q3DVsAdfA4IjnwnqGmd_IotaBgGcFxzB\n",
        "Perfil_B": "1hAxLPuZ3DJqKQOrXQw2hS-t14dqR9_xS\n",
        "Perfil_C": "1YGtnvo3Tyj0n99FnHAQ4KYdLfHP38Fg-\n",
        "Perfil_D": "106-mfK-9T1_Ls6Pyom4A17rQ-IEq7gjd\n",
        "Seg_Perfil_A": "URL_1",
        "Seg_Perfil_B": "URL_2",
        "Seg_Perfil_C": "URL_3",
        "Seg_Perfil_D": "URL_4",
        "Hotspot_1": "34.71576156053151m 19.100185107366087m -0.6389702122213261m",
        "Hotspot_2": "34.71576156053151m 19.100185107366087m -0.6389702122213261m",
        "Hotspot_3": "34.71576156053151m 19.100185107366087m -0.6389702122213261m",
        "Hotspot_4": "34.71576156053151m 19.100185107366087m -0.6389702122213261m"
      },
      "geometry": {
        "type": "Polygon",
        "coordinates": [
          [
            [
              -69.8883378,
              18.4768779,
              0
            ],
            [
              -69.8884853,
              18.4767625,
              0
            ],
            [
              -69.8881226,
              18.4763483,
              0
            ],
            [
              -69.8879904,
              18.4764868,
              0
            ],
            [
              -69.8883378,
              18.4768779,
              0
            ]
          ]
        ]
      }
    },
    {
      "type": "Feature",
      "properties": {
        "Layer": "Layer 04",
        "SubClasses": "AcDbEntity:AcDb2dPolyline",
        "EntityHandle": "1DE",
        "Vecindario": "San Miguel",
        "Manzana": "SM03",
        "Modelo3D": "URL_0",
        "Perfil_A": "1KXXC59-fqjodOo2n5VohKFvBKCQribCb\n",
        "Perfil_B": "11ecKD5ZfR5MHUqzCXG44-Sa-eCd7AWcn\n",
        "Perfil_C": "1C9o-SB8Bk9ReMMYPSRJ4jYLzSOH73Gg_\n",
        "Perfil_D": "1uL4cnHHxOxNf5yJGQwU4sRQpkkXa01sX\n",
        "Seg_Perfil_A": "URL_1",
        "Seg_Perfil_B": "URL_2",
        "Seg_Perfil_C": "URL_3",
        "Seg_Perfil_D": "URL_4",
        "Hotspot_1": "34.71576156053151m 19.100185107366087m -0.6389702122213261m",
        "Hotspot_2": "34.71576156053151m 19.100185107366087m -0.6389702122213261m",
        "Hotspot_3": "34.71576156053151m 19.100185107366087m -0.6389702122213261m",
        "Hotspot_4": "34.71576156053151m 19.100185107366087m -0.6389702122213261m"
      },
      "geometry": {
        "type": "Polygon",
        "coordinates": [
          [
            [
              -69.8887582,
              18.4765267,
              0
            ],
            [
              -69.8885568,
              18.475953,
              0
            ],
            [
              -69.8881512,
              18.4763203,
              0
            ],
            [
              -69.8885162,
              18.476737,
              0
            ],
            [
              -69.8887582,
              18.4765267,
              0
            ]
          ]
        ]
      }
    },
    {
      "type": "Feature",
      "properties": {
        "Layer": "Layer 04",
        "SubClasses": "AcDbEntity:AcDb2dPolyline",
        "EntityHandle": "20E",
        "Vecindario": "San Miguel",
        "Manzana": "SM04",
        "Modelo3D": "URL_0",
        "Perfil_A": "None",
        "Perfil_B": "1z38tFykOCL5PF4-CDO3gTagKBkdXYeQk\n",
        "Perfil_C": "187lt_BrlxlLA_SsxKZWuadR2HCipqDc4\n",
        "Perfil_D": "1s19idPRRgbbhdM2AoMpvMVCe6mlPBasd\n",
        "Seg_Perfil_A": "URL_1",
        "Seg_Perfil_B": "URL_2",
        "Seg_Perfil_C": "URL_3",
        "Seg_Perfil_D": "URL_4",
        "Hotspot_1": "34.71576156053151m 19.100185107366087m -0.6389702122213261m",
        "Hotspot_2": "34.71576156053151m 19.100185107366087m -0.6389702122213261m",
        "Hotspot_3": "34.71576156053151m 19.100185107366087m -0.6389702122213261m",
        "Hotspot_4": "34.71576156053151m 19.100185107366087m -0.6389702122213261m"
      },
      "geometry": {
        "type": "Polygon",
        "coordinates": [
          [
            [
              -69.8879351,
              18.4764835,
              0
            ],
            [
              -69.8878534,
              18.4763833,
              0
            ],
            [
              -69.8870795,
              18.476722,
              0
            ],
            [
              -69.8871672,
              18.4769435,
              0
            ],
            [
              -69.8874253,
              18.4768318,
              0
            ],
            [
              -69.8875733,
              18.4767551,
              0
            ],
            [
              -69.8877163,
              18.4766642,
              0
            ],
            [
              -69.8879351,
              18.4764835,
              0
            ]
          ]
        ]
      }
    },
    {
      "type": "Feature",
      "properties": {
        "Layer": "Layer 04",
        "SubClasses": "AcDbEntity:AcDb2dPolyline",
        "EntityHandle": "D3",
        "Vecindario": "San Miguel",
        "Manzana": "SM05",
        "Modelo3D": "URL_0",
        "Perfil_A": "1wLUH2sm2JC_2ZXhaUNaS6uBZDhlsuMfQ\n",
        "Perfil_B": "1PMhARZLSxnTpL4XViPVlYvRsaaJAvZ2q\n",
        "Perfil_C": "1C2fGZHlRtIuFys1QGG5ZBlhJNHo4UnK-\n",
        "Perfil_D": "1k-bIBdooB0bLnJlYBUIw5lHgktHu-NUS\n",
        "Seg_Perfil_A": "URL_1",
        "Seg_Perfil_B": "URL_2",
        "Seg_Perfil_C": "URL_3",
        "Seg_Perfil_D": "URL_4",
        "Hotspot_1": "34.71576156053151m 19.100185107366087m -0.6389702122213261m",
        "Hotspot_2": "34.71576156053151m 19.100185107366087m -0.6389702122213261m",
        "Hotspot_3": "34.71576156053151m 19.100185107366087m -0.6389702122213261m",
        "Hotspot_4": "34.71576156053151m 19.100185107366087m -0.6389702122213261m"
      },
      "geometry": {
        "type": "Polygon",
        "coordinates": [
          [
            [
              -69.8879587,
              18.4764407,
              0
            ],
            [
              -69.8885425,
              18.475912,
              0
            ],
            [
              -69.8885227,
              18.4758541,
              0
            ],
            [
              -69.8877084,
              18.4761287,
              0
            ],
            [
              -69.8877461,
              18.4762013,
              0
            ],
            [
              -69.8879587,
              18.4764407,
              0
            ]
          ]
        ]
      }
    },
    {
      "type": "Feature",
      "properties": {
        "Layer": "Layer 04",
        "SubClasses": "AcDbEntity:AcDb2dPolyline",
        "EntityHandle": 217,
        "Vecindario": "San Miguel",
        "Manzana": "SM06",
        "Modelo3D": "URL_0",
        "Perfil_A": "1YEb0b3_ypbWEv-RHknIFJTWc_nChPR84\n",
        "Perfil_B": "1ZINaV6KNpDGVnTPUk7oeGGemdUUIMAQi\n",
        "Perfil_C": "1x8KeZ2tHfF0f4pEhC5s1XaRLCaOuXJne\n",
        "Perfil_D": "1_iWvytpuId3l5--Dni6urJD4UNjShD_s\n",
        "Seg_Perfil_A": "URL_1",
        "Seg_Perfil_B": "URL_2",
        "Seg_Perfil_C": "URL_3",
        "Seg_Perfil_D": "URL_4",
        "Hotspot_1": "34.71576156053151m 19.100185107366087m -0.6389702122213261m",
        "Hotspot_2": "34.71576156053151m 19.100185107366087m -0.6389702122213261m",
        "Hotspot_3": "34.71576156053151m 19.100185107366087m -0.6389702122213261m",
        "Hotspot_4": "34.71576156053151m 19.100185107366087m -0.6389702122213261m"
      },
      "geometry": {
        "type": "Polygon",
        "coordinates": [
          [
            [
              -69.8876705,
              18.4761422,
              0
            ],
            [
              -69.886971,
              18.4764078,
              0
            ],
            [
              -69.8870657,
              18.4766844,
              0
            ],
            [
              -69.8878262,
              18.4763516,
              0
            ],
            [
              -69.8877135,
              18.4762239,
              0
            ],
            [
              -69.8876705,
              18.4761422,
              0
            ]
          ]
        ]
      }
    },
    {
      "type": "Feature",
      "properties": {
        "Layer": "Layer 04",
        "SubClasses": "AcDbEntity:AcDb2dPolyline",
        "EntityHandle": "21E",
        "Vecindario": "San Miguel",
        "Manzana": "SM07",
        "Modelo3D": "URL_0",
        "Perfil_A": "1_jc6xc15Eisl5cqIc93hmFibGp9u7b2H\n",
        "Perfil_B": "1RBz4VesIjk5kwLBRURr1zLuQRiQXY1rp\n",
        "Perfil_C": "1-OLjtW4XRP5dSf3TGs7zOhTuSEM9b-CZ\n",
        "Perfil_D": "1QDWCgnN-aMVLBrSv8U-v6Sdy5_SBUO07\n",
        "Seg_Perfil_A": "URL_1",
        "Seg_Perfil_B": "URL_2",
        "Seg_Perfil_C": "URL_3",
        "Seg_Perfil_D": "URL_4",
        "Hotspot_1": "34.71576156053151m 19.100185107366087m -0.6389702122213261m",
        "Hotspot_2": "34.71576156053151m 19.100185107366087m -0.6389702122213261m",
        "Hotspot_3": "34.71576156053151m 19.100185107366087m -0.6389702122213261m",
        "Hotspot_4": "34.71576156053151m 19.100185107366087m -0.6389702122213261m"
      },
      "geometry": {
        "type": "Polygon",
        "coordinates": [
          [
            [
              -69.8875858,
              18.4758096,
              0
            ],
            [
              -69.8868394,
              18.4760383,
              0
            ],
            [
              -69.8869578,
              18.4763701,
              0
            ],
            [
              -69.8876564,
              18.4761047,
              0
            ],
            [
              -69.8875858,
              18.4758096,
              0
            ]
          ]
        ]
      }
    },
    {
      "type": "Feature",
      "properties": {
        "Layer": "Layer 04",
        "SubClasses": "AcDbEntity:AcDb2dPolyline",
        "EntityHandle": "1B6",
        "Vecindario": "San Miguel",
        "Manzana": "SM08",
        "Modelo3D": "URL_0",
        "Perfil_A": "13N4_hJHHnlgTQoPQ6lawAKpeoo9ieN-0\n",
        "Perfil_B": "1N-FY3Vf4WAxIzvObBrasGe5z5AEuU4qH\n",
        "Perfil_C": "1KbEj5F1mhgqsf5lgQ0yrAmHv2vSESNPR\n",
        "Perfil_D": "1jXLRSooJrwKrNgnoNrSDmHfi9m6tO0bl\n",
        "Seg_Perfil_A": "URL_1",
        "Seg_Perfil_B": "URL_2",
        "Seg_Perfil_C": "URL_3",
        "Seg_Perfil_D": "URL_4",
        "Hotspot_1": "34.71576156053151m 19.100185107366087m -0.6389702122213261m",
        "Hotspot_2": "34.71576156053151m 19.100185107366087m -0.6389702122213261m",
        "Hotspot_3": "34.71576156053151m 19.100185107366087m -0.6389702122213261m",
        "Hotspot_4": "34.71576156053151m 19.100185107366087m -0.6389702122213261m"
      },
      "geometry": {
        "type": "Polygon",
        "coordinates": [
          [
            [
              -69.8876242,
              18.4757983,
              0
            ],
            [
              -69.8876943,
              18.4760913,
              0
            ],
            [
              -69.8885098,
              18.4758162,
              0
            ],
            [
              -69.8884345,
              18.4755934,
              0
            ],
            [
              -69.8880593,
              18.475678,
              0
            ],
            [
              -69.8876242,
              18.4757983,
              0
            ]
          ]
        ]
      }
    },
    {
      "type": "Feature",
      "properties": {
        "Layer": "Layer 04",
        "SubClasses": "AcDbEntity:AcDb2dPolyline",
        "EntityHandle": "EF",
        "Vecindario": "San Miguel",
        "Manzana": "SM09",
        "Modelo3D": "URL_0",
        "Perfil_A": "1e363Dr-5UBzrM33zcEou03KHAppizjIg\n",
        "Perfil_B": "None",
        "Perfil_C": "None",
        "Perfil_D": "1GfN3-zfub6QMviB6jrPeS52Zj5TdjRhT\n",
        "Seg_Perfil_A": "URL_1",
        "Seg_Perfil_B": "URL_2",
        "Seg_Perfil_C": "URL_3",
        "Seg_Perfil_D": "URL_4",
        "Hotspot_1": "34.71576156053151m 19.100185107366087m -0.6389702122213261m",
        "Hotspot_2": "34.71576156053151m 19.100185107366087m -0.6389702122213261m",
        "Hotspot_3": "34.71576156053151m 19.100185107366087m -0.6389702122213261m",
        "Hotspot_4": "34.71576156053151m 19.100185107366087m -0.6389702122213261m"
      },
      "geometry": {
        "type": "Polygon",
        "coordinates": [
          [
            [
              -69.8867036,
              18.4755819,
              0
            ],
            [
              -69.886827,
              18.4760003,
              0
            ],
            [
              -69.8870913,
              18.4759192,
              0
            ],
            [
              -69.886963,
              18.4755015,
              0
            ],
            [
              -69.8867036,
              18.4755819,
              0
            ]
          ]
        ]
      }
    },
    {
      "type": "Feature",
      "properties": {
        "Layer": "Layer 04",
        "SubClasses": "AcDbEntity:AcDb2dPolyline",
        "EntityHandle": "E4",
        "Vecindario": "San Miguel",
        "Manzana": "SM10",
        "Modelo3D": "URL_0",
        "Perfil_A": "10OpmUAuG_2EDGVa7w72WkQ_Via-Vd6UZ\n",
        "Perfil_B": "1u2ZfpQZNXQpP8QWKDaSZ-Yu1gaE24kaF\n",
        "Perfil_C": "1uVH4_heX2P_IbIiHf4TcIN8DkpUruVTB\n",
        "Perfil_D": "1ZRff5pjPD-Ut5nbFXqBXPMIGhg6XZ_3Y\n",
        "Seg_Perfil_A": "URL_1",
        "Seg_Perfil_B": "URL_2",
        "Seg_Perfil_C": "URL_3",
        "Seg_Perfil_D": "URL_4",
        "Hotspot_1": "34.71576156053151m 19.100185107366087m -0.6389702122213261m",
        "Hotspot_2": "34.71576156053151m 19.100185107366087m -0.6389702122213261m",
        "Hotspot_3": "34.71576156053151m 19.100185107366087m -0.6389702122213261m",
        "Hotspot_4": "34.71576156053151m 19.100185107366087m -0.6389702122213261m"
      },
      "geometry": {
        "type": "Polygon",
        "coordinates": [
          [
            [
              -69.8866929,
              18.4755456,
              0
            ],
            [
              -69.8869895,
              18.4754539,
              0
            ],
            [
              -69.8871288,
              18.4759078,
              0
            ],
            [
              -69.8875763,
              18.4757706,
              0
            ],
            [
              -69.8873954,
              18.4750495,
              0
            ],
            [
              -69.8873198,
              18.4747817,
              0
            ],
            [
              -69.8872477,
              18.4745293,
              0
            ],
            [
              -69.8868912,
              18.4747219,
              0
            ],
            [
              -69.8865099,
              18.4749251,
              0
            ],
            [
              -69.8866929,
              18.4755456,
              0
            ]
          ]
        ]
      }
    },
    {
      "type": "Feature",
      "properties": {
        "Layer": "Layer 04",
        "SubClasses": "AcDbEntity:AcDb2dPolyline",
        "EntityHandle": 76,
        "Vecindario": "San Miguel",
        "Manzana": "SM11",
        "Modelo3D": "URL_0",
        "Perfil_A": "1gbLUbVHsWrI0UKMwPG3dzfOqz0DrVF7L\n",
        "Perfil_B": "None",
        "Perfil_C": "1kUU7EmHn1pX_EsMNf4tY4GhbAp1uEt_A\n",
        "Perfil_D": "1Ljp1wkHWcfsiaBcZQBFIFj9lx40hpQqz\n",
        "Seg_Perfil_A": "URL_1",
        "Seg_Perfil_B": "URL_2",
        "Seg_Perfil_C": "URL_3",
        "Seg_Perfil_D": "URL_4",
        "Hotspot_1": "34.71576156053151m 19.100185107366087m -0.6389702122213261m",
        "Hotspot_2": "34.71576156053151m 19.100185107366087m -0.6389702122213261m",
        "Hotspot_3": "34.71576156053151m 19.100185107366087m -0.6389702122213261m",
        "Hotspot_4": "34.71576156053151m 19.100185107366087m -0.6389702122213261m"
      },
      "geometry": {
        "type": "Polygon",
        "coordinates": [
          [
            [
              -69.8877272,
              18.475213,
              0
            ],
            [
              -69.8876463,
              18.4751747,
              0
            ],
            [
              -69.8875462,
              18.4750076,
              0
            ],
            [
              -69.8874382,
              18.4750557,
              0
            ],
            [
              -69.8876147,
              18.4757595,
              0
            ],
            [
              -69.8880298,
              18.4756446,
              0
            ],
            [
              -69.8879288,
              18.4752771,
              0
            ],
            [
              -69.8878712,
              18.4753013,
              0
            ],
            [
              -69.8878129,
              18.4751718,
              0
            ],
            [
              -69.8877272,
              18.475213,
              0
            ]
          ]
        ]
      }
    },
    {
      "type": "Feature",
      "properties": {
        "Layer": "Layer 04",
        "SubClasses": "AcDbEntity:AcDb2dPolyline",
        "EntityHandle": "CD",
        "Vecindario": "San Miguel",
        "Manzana": "SM12",
        "Modelo3D": "URL_0",
        "Perfil_A": "1C4VQkggx9oXe2VkSkNGbvbKV2Qo4Mntf\n",
        "Perfil_B": "1ijJvOIso00uXRrij77Ec7eSxROGIWtdJ\n",
        "Perfil_C": "None",
        "Perfil_D": "None",
        "Seg_Perfil_A": "URL_1",
        "Seg_Perfil_B": "URL_2",
        "Seg_Perfil_C": "URL_3",
        "Seg_Perfil_D": "URL_4",
        "Hotspot_1": "34.71576156053151m 19.100185107366087m -0.6389702122213261m",
        "Hotspot_2": "34.71576156053151m 19.100185107366087m -0.6389702122213261m",
        "Hotspot_3": "34.71576156053151m 19.100185107366087m -0.6389702122213261m",
        "Hotspot_4": "34.71576156053151m 19.100185107366087m -0.6389702122213261m"
      },
      "geometry": {
        "type": "Polygon",
        "coordinates": [
          [
            [
              -69.8882719,
              18.4751326,
              0
            ],
            [
              -69.8879659,
              18.4752614,
              0
            ],
            [
              -69.8880686,
              18.4756349,
              0
            ],
            [
              -69.8884213,
              18.4755553,
              0
            ],
            [
              -69.8882719,
              18.4751326,
              0
            ]
          ]
        ]
      }
    },
    {
      "type": "Feature",
      "properties": {
        "Layer": "Layer 04",
        "SubClasses": "AcDbEntity:AcDb2dPolyline",
        "EntityHandle": "6D",
        "Vecindario": "San Miguel",
        "Manzana": "SM13",
        "Modelo3D": "URL_0",
        "Perfil_A": "None",
        "Perfil_B": "1EFsGpcPAfANGiVyvU2HwnyWnI5ef46nQ\n",
        "Perfil_C": "10afMmegh7k5drR6yHINmx5RfjgJzOeFi\n",
        "Perfil_D": "None",
        "Seg_Perfil_A": "URL_1",
        "Seg_Perfil_B": "URL_2",
        "Seg_Perfil_C": "URL_3",
        "Seg_Perfil_D": "URL_4",
        "Hotspot_1": "34.71576156053151m 19.100185107366087m -0.6389702122213261m",
        "Hotspot_2": "34.71576156053151m 19.100185107366087m -0.6389702122213261m",
        "Hotspot_3": "34.71576156053151m 19.100185107366087m -0.6389702122213261m",
        "Hotspot_4": "34.71576156053151m 19.100185107366087m -0.6389702122213261m"
      },
      "geometry": {
        "type": "Polygon",
        "coordinates": [
          [
            [
              -69.8878328,
              18.4751203,
              0
            ],
            [
              -69.8878907,
              18.4752497,
              0
            ],
            [
              -69.8882591,
              18.4750946,
              0
            ],
            [
              -69.8881454,
              18.4747404,
              0
            ],
            [
              -69.8875821,
              18.4749916,
              0
            ],
            [
              -69.8876748,
              18.4751459,
              0
            ],
            [
              -69.8877274,
              18.4751708,
              0
            ],
            [
              -69.8878328,
              18.4751203,
              0
            ]
          ]
        ]
      }
    },
    {
      "type": "Feature",
      "properties": {
        "Layer": "Layer 04",
        "SubClasses": "AcDbEntity:AcDb2dPolyline",
        "EntityHandle": 158,
        "Vecindario": "San Miguel",
        "Manzana": "SM14",
        "Modelo3D": "URL_0",
        "Perfil_A": "1J9hSUl2pNMTIdwGJlEVvIdEkvWe-d6NT\n",
        "Perfil_B": "12wmV53sCWjZE5LqdXmFkU3ii0uVrgVvW\n",
        "Perfil_C": "1DkY1IH5R76j11p3ZE4XYiXo_7mOnlika\n",
        "Perfil_D": "1KOa1Yh7nYnVG9dwY1LKfknzYJHnuJ3Y6\n",
        "Seg_Perfil_A": "URL_1",
        "Seg_Perfil_B": "URL_2",
        "Seg_Perfil_C": "URL_3",
        "Seg_Perfil_D": "URL_4",
        "Hotspot_1": "34.71576156053151m 19.100185107366087m -0.6389702122213261m",
        "Hotspot_2": "34.71576156053151m 19.100185107366087m -0.6389702122213261m",
        "Hotspot_3": "34.71576156053151m 19.100185107366087m -0.6389702122213261m",
        "Hotspot_4": "34.71576156053151m 19.100185107366087m -0.6389702122213261m"
      },
      "geometry": {
        "type": "Polygon",
        "coordinates": [
          [
            [
              -69.8872835,
              18.4745089,
              0
            ],
            [
              -69.8873582,
              18.4747707,
              0
            ],
            [
              -69.8874277,
              18.4750166,
              0
            ],
            [
              -69.888134,
              18.4747017,
              0
            ],
            [
              -69.8879733,
              18.4740808,
              0
            ],
            [
              -69.8878691,
              18.4741451,
              0
            ],
            [
              -69.8875726,
              18.474328,
              0
            ],
            [
              -69.8872835,
              18.4745089,
              0
            ]
          ]
        ]
      }
    }
  ]
}
